{
"type": "FeatureCollection",
"name": "mtl_T2B_gisoo",
"crs": { "type": "name", "properties": { "name": "urn:ogc:def:crs:EPSG::4617" } },
"xy_coordinate_resolution": 1e-15,
"features": [
{ "type": "Feature", "id": 1, "properties": { "id": 270736, "feature_id": "2f0ba024-4b13-46ee-853a-5888d3abb8c4", "acqtech": 1360, "acqtech_en": "Lidar", "acqtech_fr": "Lidar", "provider": 461, "provider_en": null, "provider_fr": null, "datemin": "20151124", "datemax": "20151208", "haccmin": 2.0, "haccmax": 2.0, "vaccmin": 1.0, "vaccmax": 1.0, "heightmin": 1.02, "heightmax": 6.69, "elevmin": 24.34, "elevmax": 25.22, "bldgarea": 235.31, "comment": "", "_mean": 6.5763588426518735, "_max": 17.937559127807617, "layer": "mtl_auto_with_heights_part_1", "path": "D:/GIS/new_city_data/#data_for_fsa_wise_wf/preprocessed/mtl_auto_with_heights_divided/mtl_auto_with_heights_part_1.gpkg|layername=mtl_auto_with_heights_part_1", "nrcan_id": "c4a08939-519e-4525-af73-bfd6d7212124", "nrcan_area": 235.36445229663514, "inter_area": 53.866389791481197, "area_ratio": 0.22886374414600286, "sum_restore_group": 0, "sum_restore_reason": "keep", "sum_number_parts": 4, "sum_min_inter_area": 53.866389791481197, "sum_max_inter_area": 65.328800324583426, "sum_max_area_ratio": 0.27756443119221785, "restore_group": null, "restore_reason": null, "nrcan_in_id": "247c92e6-6d0e-4a8b-9e1e-933d0ef1d80b", "ur_fid": 1, "ur_g_co_mrc": "12345", "ur_g_code_mun": "11223", "ur_g_arrond": "AAA11", "ur_g_no_lot": "1234513", "ur_g_utilisat": "1000", "ur_g_usag_pre": "Résidentiel", "ur_g_id_provi": "mock_prov004", "ur_g_sup_tota": 252.4, "ur_g_nb_logem": 1.0, "ur_g_descript": "Sysnthetic Data", "ur_g_anrole": "2026", "ur_g_date_cad": "2026-09-21 09:15:15.0000000", "ur_g_shape_le": 71.173463060709892, "ur_g_shape_ar": 251.61046468166398, "ur_r_fid": 824739, "ur_r_OBJECTID": 824739.0, "ur_id_provinc": "mock_prov004", "ur_r_code_mun": "66023", "ur_r_arrond": "REM33", "ur_r_rejet": 0, "ur_r_date_entre": "2015", "ur_r_mat18": "975543985330000000", "ur_r_ueid_provinc": "mock_prov004", "ur_r_uecode_mun": "66023", "ur_r_uerl0102a": "REM33", "ur_r_uerl0105a": "1000", "ur_r_uerl0301a": 9.76, "ur_r_uerl0302a": 252.4, "ur_r_uerl0304a": null, "ur_r_uerl0305a": null, "ur_r_uerl0306a": 2, "ur_r_uerl0307a": "1971", "ur_r_uerl0307b": "R", "ur_r_uerl0308a": 109.6, "ur_r_uerl0309a": "2", "ur_r_uerl0311a": 1, "ur_r_uerl0313a": null, "ur_r_uerl0310a": "5", "ur_r_ad_addr_count": "1", "ur_r_ad_addr_all": "8048  JEAN-DARCET", "ur_r_roll_id": "94436606-5683-4536-b21b-e5e1a470faf5", "ur_r_r_id_provinc": "mock_prov004", "ur_area_ex": null, "ur_ro_fid": null, "ur_ro_OBJECTID": null, "ur_ro_id_provinc": null, "ur_ro_code_mun": null, "ur_ro_arrond": null, "ur_ro_rejet": null, "ur_ro_date_entre": null, "ur_ro_mat18": null, "ur_ro_ueid_provinc": null, "ur_ro_uecode_mun": null, "ur_ro_uerl0102a": null, "ur_ro_uerl0105a": null, "ur_ro_uerl0301a": null, "ur_ro_uerl0302a": null, "ur_ro_uerl0304a": null, "ur_ro_uerl0305a": null, "ur_ro_uerl0306a": null, "ur_ro_uerl0307a": null, "ur_ro_uerl0307b": null, "ur_ro_uerl0308a": null, "ur_ro_uerl0309a": null, "ur_ro_uerl0311a": null, "ur_ro_uerl0313a": null, "ur_ro_uerl0310a": null, "ur_ro_ad_addr_count": null, "ur_ro_ad_addr_all": null, "ur_ro_roll_id": null, "ur_layer": "usage_roll_T2B", "ur_path": "D:/GIS/mtl_gisoo_fsa_data\\output_data\\T2B\\usage_roll\\usage_roll.gpkg", "ur_usage_roll_id": "be514b3b-815e-4d2a-9385-ffb134458531", "g_co_mrc": null, "g_code_mun": null, "g_arrond": null, "g_no_lot": null, "g_utilisat": null, "g_usag_pre": null, "g_id_provi": null, "g_sup_tota": null, "g_nb_logem": null, "g_descript": null, "g_anrole": null, "g_date_cad": null, "g_shape_le": null, "g_shape_ar": null, "r_fid": null, "r_OBJECTID": null, "id_provinc": null, "r_code_mun": null, "r_arrond": null, "r_rejet": null, "r_date_entre": null, "r_mat18": null, "r_ueid_provinc": null, "r_uecode_mun": null, "r_uerl0102a": null, "r_uerl0105a": null, "r_uerl0301a": null, "r_uerl0302a": null, "r_uerl0304a": null, "r_uerl0305a": null, "r_uerl0306a": null, "r_uerl0307a": null, "r_uerl0307b": null, "r_uerl0308a": null, "r_uerl0309a": null, "r_uerl0311a": null, "r_uerl0313a": null, "r_uerl0310a": null, "r_ad_addr_count": null, "r_ad_addr_all": null, "r_roll_id": null, "r_r_id_provinc": null, "area_ex": null, "ro_fid": null, "ro_OBJECTID": null, "ro_id_provinc": null, "ro_code_mun": null, "ro_arrond": null, "ro_rejet": null, "ro_date_entre": null, "ro_mat18": null, "ro_ueid_provinc": null, "ro_uecode_mun": null, "ro_uerl0102a": null, "ro_uerl0105a": null, "ro_uerl0301a": null, "ro_uerl0302a": null, "ro_uerl0304a": null, "ro_uerl0305a": null, "ro_uerl0306a": null, "ro_uerl0307a": null, "ro_uerl0307b": null, "ro_uerl0308a": null, "ro_uerl0309a": null, "ro_uerl0311a": null, "ro_uerl0313a": null, "ro_uerl0310a": null, "ro_ad_addr_count": null, "ro_ad_addr_all": null, "ro_roll_id": null, "usage_roll_id": null, "FSA": "T2B", "citygisoo_id": "b2ea6ea7-fe84-47f6-ac09-73a1a02e39f4", "citygisoo_area": 53.866389791481197, "processing_tool": "citygisoo", "processed_by": "Sabu GIS Cities" }, "geometry": { "type": "MultiPolygon", "coordinates": [ [ [ [ -73.593662567006618, 45.638105082398248 ], [ -73.593594115490006, 45.638040957213832 ], [ -73.5936576, 45.638009 ], [ -73.5936602, 45.6380117 ], [ -73.5937253, 45.6380716 ], [ -73.593662567006618, 45.638105082398248 ] ] ] ] } },
{ "type": "Feature", "id": 2, "properties": { "id": 271052, "feature_id": "96d759a0-8b27-470c-9636-f74373b18077", "acqtech": 1360, "acqtech_en": "Lidar", "acqtech_fr": "Lidar", "provider": 461, "provider_en": null, "provider_fr": null, "datemin": "20151124", "datemax": "20151208", "haccmin": 2.0, "haccmax": 2.0, "vaccmin": 1.0, "vaccmax": 1.0, "heightmin": 1.22, "heightmax": 8.59, "elevmin": 24.57, "elevmax": 25.99, "bldgarea": 75.69, "comment": "", "_mean": 7.3712003138158231, "_max": 9.5551052093505859, "layer": "mtl_auto_with_heights_part_1", "path": "D:/GIS/new_city_data/#data_for_fsa_wise_wf/preprocessed/mtl_auto_with_heights_divided/mtl_auto_with_heights_part_1.gpkg|layername=mtl_auto_with_heights_part_1", "nrcan_id": "fd9675de-a31f-4f2b-b9dd-cc0174ae0e91", "nrcan_area": 75.728105381131172, "inter_area": 75.728105381131172, "area_ratio": 1.0, "sum_restore_group": 0, "sum_restore_reason": "keep", "sum_number_parts": 1, "sum_min_inter_area": 75.728105381131172, "sum_max_inter_area": 75.728105381131172, "sum_max_area_ratio": 1.0, "restore_group": null, "restore_reason": null, "nrcan_in_id": "e79cb36c-5a7a-4269-9d16-1fdc81b03587", "ur_fid": 2, "ur_g_co_mrc": "12345", "ur_g_code_mun": "11223", "ur_g_arrond": "AAA11", "ur_g_no_lot": "1234515", "ur_g_utilisat": "1000", "ur_g_usag_pre": "Résidentiel", "ur_g_id_provi": "mock_prov001", "ur_g_sup_tota": 400.9, "ur_g_nb_logem": 1.0, "ur_g_descript": "Sysnthetic Data", "ur_g_anrole": "2026", "ur_g_date_cad": "2026-09-21 09:15:15.0000000", "ur_g_shape_le": 81.172959907330778, "ur_g_shape_ar": 401.82250174261827, "ur_r_fid": 824736, "ur_r_OBJECTID": 824736.0, "ur_id_provinc": "mock_prov001", "ur_r_code_mun": "66023", "ur_r_arrond": "REM33", "ur_r_rejet": 0, "ur_r_date_entre": "2015", "ur_r_mat18": "975553257330000000", "ur_r_ueid_provinc": "mock_prov001", "ur_r_uecode_mun": "66023", "ur_r_uerl0102a": "REM33", "ur_r_uerl0105a": "1000", "ur_r_uerl0301a": 11.09, "ur_r_uerl0302a": 400.9, "ur_r_uerl0304a": null, "ur_r_uerl0305a": null, "ur_r_uerl0306a": 2, "ur_r_uerl0307a": "1988", "ur_r_uerl0307b": "R", "ur_r_uerl0308a": 141.6, "ur_r_uerl0309a": "1", "ur_r_uerl0311a": 1, "ur_r_uerl0313a": null, "ur_r_uerl0310a": "5", "ur_r_ad_addr_count": "1", "ur_r_ad_addr_all": "8068  JEAN-DARCET", "ur_r_roll_id": "e53c865f-72d2-4c73-9b26-6cf3e824485d", "ur_r_r_id_provinc": "mock_prov001", "ur_area_ex": null, "ur_ro_fid": null, "ur_ro_OBJECTID": null, "ur_ro_id_provinc": null, "ur_ro_code_mun": null, "ur_ro_arrond": null, "ur_ro_rejet": null, "ur_ro_date_entre": null, "ur_ro_mat18": null, "ur_ro_ueid_provinc": null, "ur_ro_uecode_mun": null, "ur_ro_uerl0102a": null, "ur_ro_uerl0105a": null, "ur_ro_uerl0301a": null, "ur_ro_uerl0302a": null, "ur_ro_uerl0304a": null, "ur_ro_uerl0305a": null, "ur_ro_uerl0306a": null, "ur_ro_uerl0307a": null, "ur_ro_uerl0307b": null, "ur_ro_uerl0308a": null, "ur_ro_uerl0309a": null, "ur_ro_uerl0311a": null, "ur_ro_uerl0313a": null, "ur_ro_uerl0310a": null, "ur_ro_ad_addr_count": null, "ur_ro_ad_addr_all": null, "ur_ro_roll_id": null, "ur_layer": "usage_roll_T2B", "ur_path": "D:/GIS/mtl_gisoo_fsa_data\\output_data\\T2B\\usage_roll\\usage_roll.gpkg", "ur_usage_roll_id": "ba040287-631a-46f1-a1bf-2bb4f586f1e6", "g_co_mrc": null, "g_code_mun": null, "g_arrond": null, "g_no_lot": null, "g_utilisat": null, "g_usag_pre": null, "g_id_provi": null, "g_sup_tota": null, "g_nb_logem": null, "g_descript": null, "g_anrole": null, "g_date_cad": null, "g_shape_le": null, "g_shape_ar": null, "r_fid": null, "r_OBJECTID": null, "id_provinc": null, "r_code_mun": null, "r_arrond": null, "r_rejet": null, "r_date_entre": null, "r_mat18": null, "r_ueid_provinc": null, "r_uecode_mun": null, "r_uerl0102a": null, "r_uerl0105a": null, "r_uerl0301a": null, "r_uerl0302a": null, "r_uerl0304a": null, "r_uerl0305a": null, "r_uerl0306a": null, "r_uerl0307a": null, "r_uerl0307b": null, "r_uerl0308a": null, "r_uerl0309a": null, "r_uerl0311a": null, "r_uerl0313a": null, "r_uerl0310a": null, "r_ad_addr_count": null, "r_ad_addr_all": null, "r_roll_id": null, "r_r_id_provinc": null, "area_ex": null, "ro_fid": null, "ro_OBJECTID": null, "ro_id_provinc": null, "ro_code_mun": null, "ro_arrond": null, "ro_rejet": null, "ro_date_entre": null, "ro_mat18": null, "ro_ueid_provinc": null, "ro_uecode_mun": null, "ro_uerl0102a": null, "ro_uerl0105a": null, "ro_uerl0301a": null, "ro_uerl0302a": null, "ro_uerl0304a": null, "ro_uerl0305a": null, "ro_uerl0306a": null, "ro_uerl0307a": null, "ro_uerl0307b": null, "ro_uerl0308a": null, "ro_uerl0309a": null, "ro_uerl0311a": null, "ro_uerl0313a": null, "ro_uerl0310a": null, "ro_ad_addr_count": null, "ro_ad_addr_all": null, "ro_roll_id": null, "usage_roll_id": null, "FSA": "T2B", "citygisoo_id": "d8bf5e5a-7689-484c-aa47-b35e2ba71600", "citygisoo_area": 75.728105381131172, "processing_tool": "citygisoo", "processed_by": "Sabu GIS Cities" }, "geometry": { "type": "MultiPolygon", "coordinates": [ [ [ [ -73.5933325, 45.6382899 ], [ -73.5932616, 45.6382175 ], [ -73.5933437, 45.638178 ], [ -73.5934145, 45.6382504 ], [ -73.5933325, 45.6382899 ] ] ] ] } },
{ "type": "Feature", "id": 3, "properties": { "id": 270736, "feature_id": "2f0ba024-4b13-46ee-853a-5888d3abb8c4", "acqtech": 1360, "acqtech_en": "Lidar", "acqtech_fr": "Lidar", "provider": 461, "provider_en": null, "provider_fr": null, "datemin": "20151124", "datemax": "20151208", "haccmin": 2.0, "haccmax": 2.0, "vaccmin": 1.0, "vaccmax": 1.0, "heightmin": 1.02, "heightmax": 6.69, "elevmin": 24.34, "elevmax": 25.22, "bldgarea": 235.31, "comment": "", "_mean": 6.5763588426518735, "_max": 17.937559127807617, "layer": "mtl_auto_with_heights_part_1", "path": "D:/GIS/new_city_data/#data_for_fsa_wise_wf/preprocessed/mtl_auto_with_heights_divided/mtl_auto_with_heights_part_1.gpkg|layername=mtl_auto_with_heights_part_1", "nrcan_id": "c4a08939-519e-4525-af73-bfd6d7212124", "nrcan_area": 235.36445229663514, "inter_area": 65.328800324583426, "area_ratio": 0.27756443119221785, "sum_restore_group": 0, "sum_restore_reason": "keep", "sum_number_parts": 4, "sum_min_inter_area": 53.866389791481197, "sum_max_inter_area": 65.328800324583426, "sum_max_area_ratio": 0.27756443119221785, "restore_group": null, "restore_reason": null, "nrcan_in_id": "9c1e1cac-53ba-445d-af2f-9085f5cd7614", "ur_fid": 3, "ur_g_co_mrc": "12345", "ur_g_code_mun": "11223", "ur_g_arrond": "AAA11", "ur_g_no_lot": "1234518", "ur_g_utilisat": "1000", "ur_g_usag_pre": "Résidentiel", "ur_g_id_provi": "mock_prov007", "ur_g_sup_tota": 232.7, "ur_g_nb_logem": 1.0, "ur_g_descript": "Sysnthetic Data", "ur_g_anrole": "2026", "ur_g_date_cad": "2026-09-21 09:15:15.0000000", "ur_g_shape_le": 69.692916826411903, "ur_g_shape_ar": 232.81806322184588, "ur_r_fid": 824742, "ur_r_OBJECTID": 824742.0, "ur_id_provinc": "mock_prov007", "ur_r_code_mun": "66023", "ur_r_arrond": "REM33", "ur_r_rejet": 0, "ur_r_date_entre": "2015", "ur_r_mat18": "975553156680000000", "ur_r_ueid_provinc": "mock_prov007", "ur_r_uecode_mun": "66023", "ur_r_uerl0102a": "REM33", "ur_r_uerl0105a": "1000", "ur_r_uerl0301a": 8.99, "ur_r_uerl0302a": 232.7, "ur_r_uerl0304a": null, "ur_r_uerl0305a": null, "ur_r_uerl0306a": 2, "ur_r_uerl0307a": "1971", "ur_r_uerl0307b": "R", "ur_r_uerl0308a": 101.4, "ur_r_uerl0309a": "2", "ur_r_uerl0311a": 1, "ur_r_uerl0313a": null, "ur_r_uerl0310a": "5", "ur_r_ad_addr_count": "1", "ur_r_ad_addr_all": "8060  JEAN-DARCET", "ur_r_roll_id": "d7f846d3-2827-4bdf-8057-8ffb9a79e5dd", "ur_r_r_id_provinc": "mock_prov007", "ur_area_ex": null, "ur_ro_fid": null, "ur_ro_OBJECTID": null, "ur_ro_id_provinc": null, "ur_ro_code_mun": null, "ur_ro_arrond": null, "ur_ro_rejet": null, "ur_ro_date_entre": null, "ur_ro_mat18": null, "ur_ro_ueid_provinc": null, "ur_ro_uecode_mun": null, "ur_ro_uerl0102a": null, "ur_ro_uerl0105a": null, "ur_ro_uerl0301a": null, "ur_ro_uerl0302a": null, "ur_ro_uerl0304a": null, "ur_ro_uerl0305a": null, "ur_ro_uerl0306a": null, "ur_ro_uerl0307a": null, "ur_ro_uerl0307b": null, "ur_ro_uerl0308a": null, "ur_ro_uerl0309a": null, "ur_ro_uerl0311a": null, "ur_ro_uerl0313a": null, "ur_ro_uerl0310a": null, "ur_ro_ad_addr_count": null, "ur_ro_ad_addr_all": null, "ur_ro_roll_id": null, "ur_layer": "usage_roll_T2B", "ur_path": "D:/GIS/mtl_gisoo_fsa_data\\output_data\\T2B\\usage_roll\\usage_roll.gpkg", "ur_usage_roll_id": "b6fd5407-97e9-4d61-ab5e-2c8ac909aed5", "g_co_mrc": null, "g_code_mun": null, "g_arrond": null, "g_no_lot": null, "g_utilisat": null, "g_usag_pre": null, "g_id_provi": null, "g_sup_tota": null, "g_nb_logem": null, "g_descript": null, "g_anrole": null, "g_date_cad": null, "g_shape_le": null, "g_shape_ar": null, "r_fid": null, "r_OBJECTID": null, "id_provinc": null, "r_code_mun": null, "r_arrond": null, "r_rejet": null, "r_date_entre": null, "r_mat18": null, "r_ueid_provinc": null, "r_uecode_mun": null, "r_uerl0102a": null, "r_uerl0105a": null, "r_uerl0301a": null, "r_uerl0302a": null, "r_uerl0304a": null, "r_uerl0305a": null, "r_uerl0306a": null, "r_uerl0307a": null, "r_uerl0307b": null, "r_uerl0308a": null, "r_uerl0309a": null, "r_uerl0311a": null, "r_uerl0313a": null, "r_uerl0310a": null, "r_ad_addr_count": null, "r_ad_addr_all": null, "r_roll_id": null, "r_r_id_provinc": null, "area_ex": null, "ro_fid": null, "ro_OBJECTID": null, "ro_id_provinc": null, "ro_code_mun": null, "ro_arrond": null, "ro_rejet": null, "ro_date_entre": null, "ro_mat18": null, "ro_ueid_provinc": null, "ro_uecode_mun": null, "ro_uerl0102a": null, "ro_uerl0105a": null, "ro_uerl0301a": null, "ro_uerl0302a": null, "ro_uerl0304a": null, "ro_uerl0305a": null, "ro_uerl0306a": null, "ro_uerl0307a": null, "ro_uerl0307b": null, "ro_uerl0308a": null, "ro_uerl0309a": null, "ro_uerl0311a": null, "ro_uerl0313a": null, "ro_uerl0310a": null, "ro_ad_addr_count": null, "ro_ad_addr_all": null, "ro_roll_id": null, "usage_roll_id": null, "FSA": "T2B", "citygisoo_id": "fdae3b47-4c30-4e9c-8e10-32df2a24bb4d", "citygisoo_area": 65.328800324583426, "processing_tool": "citygisoo", "processed_by": "Sabu GIS Cities" }, "geometry": { "type": "MultiPolygon", "coordinates": [ [ [ [ -73.593458, 45.6381902 ], [ -73.5934547, 45.6381869 ], [ -73.5933735, 45.638112 ], [ -73.5933783, 45.6381095 ], [ -73.5934262, 45.6380848 ], [ -73.5934359, 45.6380939 ], [ -73.593446997045476, 45.63808826514947 ], [ -73.593520702837097, 45.638157473273026 ], [ -73.593458, 45.6381902 ] ] ] ] } },
{ "type": "Feature", "id": 4, "properties": { "id": 270736, "feature_id": "2f0ba024-4b13-46ee-853a-5888d3abb8c4", "acqtech": 1360, "acqtech_en": "Lidar", "acqtech_fr": "Lidar", "provider": 461, "provider_en": null, "provider_fr": null, "datemin": "20151124", "datemax": "20151208", "haccmin": 2.0, "haccmax": 2.0, "vaccmin": 1.0, "vaccmax": 1.0, "heightmin": 1.02, "heightmax": 6.69, "elevmin": 24.34, "elevmax": 25.22, "bldgarea": 235.31, "comment": "", "_mean": 6.5763588426518735, "_max": 17.937559127807617, "layer": "mtl_auto_with_heights_part_1", "path": "D:/GIS/new_city_data/#data_for_fsa_wise_wf/preprocessed/mtl_auto_with_heights_divided/mtl_auto_with_heights_part_1.gpkg|layername=mtl_auto_with_heights_part_1", "nrcan_id": "c4a08939-519e-4525-af73-bfd6d7212124", "nrcan_area": 235.36445229663514, "inter_area": 57.289766467991285, "area_ratio": 0.24340874719597716, "sum_restore_group": 0, "sum_restore_reason": "keep", "sum_number_parts": 4, "sum_min_inter_area": 53.866389791481197, "sum_max_inter_area": 65.328800324583426, "sum_max_area_ratio": 0.27756443119221785, "restore_group": null, "restore_reason": null, "nrcan_in_id": "c60480a6-4f4d-45f8-b812-53f9e6a74d80", "ur_fid": 4, "ur_g_co_mrc": "12345", "ur_g_code_mun": "11223", "ur_g_arrond": "AAA11", "ur_g_no_lot": "1234522", "ur_g_utilisat": "1000", "ur_g_usag_pre": "Résidentiel", "ur_g_id_provi": "mock_prov006", "ur_g_sup_tota": 149.9, "ur_g_nb_logem": 1.0, "ur_g_descript": "Sysnthetic Data", "ur_g_anrole": "2026", "ur_g_date_cad": "2026-09-21 09:15:15.0000000", "ur_g_shape_le": 63.285895244632968, "ur_g_shape_ar": 149.77715524119401, "ur_r_fid": 824741, "ur_r_OBJECTID": 824741.0, "ur_id_provinc": "mock_prov006", "ur_r_code_mun": "66023", "ur_r_arrond": "REM33", "ur_r_rejet": 0, "ur_r_date_entre": "2015", "ur_r_mat18": "975553096200000000", "ur_r_ueid_provinc": "mock_prov006", "ur_r_uecode_mun": "66023", "ur_r_uerl0102a": "REM33", "ur_r_uerl0105a": "1000", "ur_r_uerl0301a": 5.79, "ur_r_uerl0302a": 149.9, "ur_r_uerl0304a": null, "ur_r_uerl0305a": null, "ur_r_uerl0306a": 2, "ur_r_uerl0307a": "1971", "ur_r_uerl0307b": "R", "ur_r_uerl0308a": 101.4, "ur_r_uerl0309a": "4", "ur_r_uerl0311a": 1, "ur_r_uerl0313a": null, "ur_r_uerl0310a": "5", "ur_r_ad_addr_count": "1", "ur_r_ad_addr_all": "8056  JEAN-DARCET", "ur_r_roll_id": "33be111c-c2d9-4d13-b7b4-4fbd9bc45a38", "ur_r_r_id_provinc": "mock_prov006", "ur_area_ex": null, "ur_ro_fid": null, "ur_ro_OBJECTID": null, "ur_ro_id_provinc": null, "ur_ro_code_mun": null, "ur_ro_arrond": null, "ur_ro_rejet": null, "ur_ro_date_entre": null, "ur_ro_mat18": null, "ur_ro_ueid_provinc": null, "ur_ro_uecode_mun": null, "ur_ro_uerl0102a": null, "ur_ro_uerl0105a": null, "ur_ro_uerl0301a": null, "ur_ro_uerl0302a": null, "ur_ro_uerl0304a": null, "ur_ro_uerl0305a": null, "ur_ro_uerl0306a": null, "ur_ro_uerl0307a": null, "ur_ro_uerl0307b": null, "ur_ro_uerl0308a": null, "ur_ro_uerl0309a": null, "ur_ro_uerl0311a": null, "ur_ro_uerl0313a": null, "ur_ro_uerl0310a": null, "ur_ro_ad_addr_count": null, "ur_ro_ad_addr_all": null, "ur_ro_roll_id": null, "ur_layer": "usage_roll_T2B", "ur_path": "D:/GIS/mtl_gisoo_fsa_data\\output_data\\T2B\\usage_roll\\usage_roll.gpkg", "ur_usage_roll_id": "233ed628-1c38-494f-91e8-854f3e94b3b4", "g_co_mrc": null, "g_code_mun": null, "g_arrond": null, "g_no_lot": null, "g_utilisat": null, "g_usag_pre": null, "g_id_provi": null, "g_sup_tota": null, "g_nb_logem": null, "g_descript": null, "g_anrole": null, "g_date_cad": null, "g_shape_le": null, "g_shape_ar": null, "r_fid": null, "r_OBJECTID": null, "id_provinc": null, "r_code_mun": null, "r_arrond": null, "r_rejet": null, "r_date_entre": null, "r_mat18": null, "r_ueid_provinc": null, "r_uecode_mun": null, "r_uerl0102a": null, "r_uerl0105a": null, "r_uerl0301a": null, "r_uerl0302a": null, "r_uerl0304a": null, "r_uerl0305a": null, "r_uerl0306a": null, "r_uerl0307a": null, "r_uerl0307b": null, "r_uerl0308a": null, "r_uerl0309a": null, "r_uerl0311a": null, "r_uerl0313a": null, "r_uerl0310a": null, "r_ad_addr_count": null, "r_ad_addr_all": null, "r_roll_id": null, "r_r_id_provinc": null, "area_ex": null, "ro_fid": null, "ro_OBJECTID": null, "ro_id_provinc": null, "ro_code_mun": null, "ro_arrond": null, "ro_rejet": null, "ro_date_entre": null, "ro_mat18": null, "ro_ueid_provinc": null, "ro_uecode_mun": null, "ro_uerl0102a": null, "ro_uerl0105a": null, "ro_uerl0301a": null, "ro_uerl0302a": null, "ro_uerl0304a": null, "ro_uerl0305a": null, "ro_uerl0306a": null, "ro_uerl0307a": null, "ro_uerl0307b": null, "ro_uerl0308a": null, "ro_uerl0309a": null, "ro_uerl0311a": null, "ro_uerl0313a": null, "ro_uerl0310a": null, "ro_ad_addr_count": null, "ro_ad_addr_all": null, "ro_roll_id": null, "usage_roll_id": null, "FSA": "T2B", "citygisoo_id": "75b6e3d2-6ce1-4901-9f64-70e7e1cd1c1a", "citygisoo_area": 57.289766467991285, "processing_tool": "citygisoo", "processed_by": "Sabu GIS Cities" }, "geometry": { "type": "MultiPolygon", "coordinates": [ [ [ [ -73.5935904, 45.6381436 ], [ -73.593585, 45.6381464 ], [ -73.5935697, 45.6381319 ], [ -73.593520702837097, 45.638157473273026 ], [ -73.593446997045476, 45.63808826514947 ], [ -73.5935066, 45.638058 ], [ -73.5935247, 45.6380759 ], [ -73.593525934279413, 45.638075278681015 ], [ -73.593595712981042, 45.638140764309597 ], [ -73.5935904, 45.6381436 ] ] ] ] } },
{ "type": "Feature", "id": 5, "properties": { "id": 270736, "feature_id": "2f0ba024-4b13-46ee-853a-5888d3abb8c4", "acqtech": 1360, "acqtech_en": "Lidar", "acqtech_fr": "Lidar", "provider": 461, "provider_en": null, "provider_fr": null, "datemin": "20151124", "datemax": "20151208", "haccmin": 2.0, "haccmax": 2.0, "vaccmin": 1.0, "vaccmax": 1.0, "heightmin": 1.02, "heightmax": 6.69, "elevmin": 24.34, "elevmax": 25.22, "bldgarea": 235.31, "comment": "", "_mean": 6.5763588426518735, "_max": 17.937559127807617, "layer": "mtl_auto_with_heights_part_1", "path": "D:/GIS/new_city_data/#data_for_fsa_wise_wf/preprocessed/mtl_auto_with_heights_divided/mtl_auto_with_heights_part_1.gpkg|layername=mtl_auto_with_heights_part_1", "nrcan_id": "c4a08939-519e-4525-af73-bfd6d7212124", "nrcan_area": 235.36445229663514, "inter_area": 58.87944982945919, "area_ratio": 0.25016288252081537, "sum_restore_group": 0, "sum_restore_reason": "keep", "sum_number_parts": 4, "sum_min_inter_area": 53.866389791481197, "sum_max_inter_area": 65.328800324583426, "sum_max_area_ratio": 0.27756443119221785, "restore_group": null, "restore_reason": null, "nrcan_in_id": "f3a3132a-ac80-495a-b048-502e8dabc3a4", "ur_fid": 5, "ur_g_co_mrc": "12345", "ur_g_code_mun": "11223", "ur_g_arrond": "AAA11", "ur_g_no_lot": "1234523", "ur_g_utilisat": "1000", "ur_g_usag_pre": "Résidentiel", "ur_g_id_provi": "mock_prov005", "ur_g_sup_tota": 169.6, "ur_g_nb_logem": 1.0, "ur_g_descript": "Sysnthetic Data", "ur_g_anrole": "2026", "ur_g_date_cad": "2026-09-21 09:15:15.0000000", "ur_g_shape_le": 64.798370590083806, "ur_g_shape_ar": 169.17858743695683, "ur_r_fid": 824740, "ur_r_OBJECTID": 824740.0, "ur_id_provinc": "mock_prov005", "ur_r_code_mun": "66023", "ur_r_arrond": "REM33", "ur_r_rejet": 0, "ur_r_date_entre": "2015", "ur_r_mat18": "975553045890000000", "ur_r_ueid_provinc": "mock_prov005", "ur_r_uecode_mun": "66023", "ur_r_uerl0102a": "REM33", "ur_r_uerl0105a": "1000", "ur_r_uerl0301a": 6.55, "ur_r_uerl0302a": 169.6, "ur_r_uerl0304a": null, "ur_r_uerl0305a": null, "ur_r_uerl0306a": 2, "ur_r_uerl0307a": "1971", "ur_r_uerl0307b": "R", "ur_r_uerl0308a": 109.6, "ur_r_uerl0309a": "4", "ur_r_uerl0311a": 1, "ur_r_uerl0313a": null, "ur_r_uerl0310a": "5", "ur_r_ad_addr_count": "1", "ur_r_ad_addr_all": "8052  JEAN-DARCET", "ur_r_roll_id": "e9d0c8b8-4ad5-4638-a364-bd00126ad108", "ur_r_r_id_provinc": "mock_prov005", "ur_area_ex": null, "ur_ro_fid": null, "ur_ro_OBJECTID": null, "ur_ro_id_provinc": null, "ur_ro_code_mun": null, "ur_ro_arrond": null, "ur_ro_rejet": null, "ur_ro_date_entre": null, "ur_ro_mat18": null, "ur_ro_ueid_provinc": null, "ur_ro_uecode_mun": null, "ur_ro_uerl0102a": null, "ur_ro_uerl0105a": null, "ur_ro_uerl0301a": null, "ur_ro_uerl0302a": null, "ur_ro_uerl0304a": null, "ur_ro_uerl0305a": null, "ur_ro_uerl0306a": null, "ur_ro_uerl0307a": null, "ur_ro_uerl0307b": null, "ur_ro_uerl0308a": null, "ur_ro_uerl0309a": null, "ur_ro_uerl0311a": null, "ur_ro_uerl0313a": null, "ur_ro_uerl0310a": null, "ur_ro_ad_addr_count": null, "ur_ro_ad_addr_all": null, "ur_ro_roll_id": null, "ur_layer": "usage_roll_T2B", "ur_path": "D:/GIS/mtl_gisoo_fsa_data\\output_data\\T2B\\usage_roll\\usage_roll.gpkg", "ur_usage_roll_id": "4ac77715-54a9-4962-a3d7-2eba38886bc5", "g_co_mrc": null, "g_code_mun": null, "g_arrond": null, "g_no_lot": null, "g_utilisat": null, "g_usag_pre": null, "g_id_provi": null, "g_sup_tota": null, "g_nb_logem": null, "g_descript": null, "g_anrole": null, "g_date_cad": null, "g_shape_le": null, "g_shape_ar": null, "r_fid": null, "r_OBJECTID": null, "id_provinc": null, "r_code_mun": null, "r_arrond": null, "r_rejet": null, "r_date_entre": null, "r_mat18": null, "r_ueid_provinc": null, "r_uecode_mun": null, "r_uerl0102a": null, "r_uerl0105a": null, "r_uerl0301a": null, "r_uerl0302a": null, "r_uerl0304a": null, "r_uerl0305a": null, "r_uerl0306a": null, "r_uerl0307a": null, "r_uerl0307b": null, "r_uerl0308a": null, "r_uerl0309a": null, "r_uerl0311a": null, "r_uerl0313a": null, "r_uerl0310a": null, "r_ad_addr_count": null, "r_ad_addr_all": null, "r_roll_id": null, "r_r_id_provinc": null, "area_ex": null, "ro_fid": null, "ro_OBJECTID": null, "ro_id_provinc": null, "ro_code_mun": null, "ro_arrond": null, "ro_rejet": null, "ro_date_entre": null, "ro_mat18": null, "ro_ueid_provinc": null, "ro_uecode_mun": null, "ro_uerl0102a": null, "ro_uerl0105a": null, "ro_uerl0301a": null, "ro_uerl0302a": null, "ro_uerl0304a": null, "ro_uerl0305a": null, "ro_uerl0306a": null, "ro_uerl0307a": null, "ro_uerl0307b": null, "ro_uerl0308a": null, "ro_uerl0309a": null, "ro_uerl0311a": null, "ro_uerl0313a": null, "ro_uerl0310a": null, "ro_ad_addr_count": null, "ro_ad_addr_all": null, "ro_roll_id": null, "usage_roll_id": null, "FSA": "T2B", "citygisoo_id": "5a30ffba-8d59-4180-b5c1-e5dfdd0c20ec", "citygisoo_area": 58.87944982945919, "processing_tool": "citygisoo", "processed_by": "Sabu GIS Cities" }, "geometry": { "type": "MultiPolygon", "coordinates": [ [ [ [ -73.593595712981042, 45.638140764309597 ], [ -73.593525934279413, 45.638075278681015 ], [ -73.593594115490006, 45.638040957213832 ], [ -73.593662567006618, 45.638105082398248 ], [ -73.593595712981042, 45.638140764309597 ] ] ] ] } }
]
}
