{
"type": "FeatureCollection",
"name": "mtl_T1A_gisoo",
"crs": { "type": "name", "properties": { "name": "urn:ogc:def:crs:EPSG::4617" } },
"xy_coordinate_resolution": 1e-15,
"features": [
{ "type": "Feature", "id": 1, "properties": { "id": 270724, "feature_id": "8984d39f-4edb-49f0-811b-1596f126fd06", "acqtech": 1360, "acqtech_en": "Lidar", "acqtech_fr": "Lidar", "provider": 461, "provider_en": null, "provider_fr": null, "datemin": "20151124", "datemax": "20151208", "haccmin": 2.0, "haccmax": 2.0, "vaccmin": 1.0, "vaccmax": 1.0, "heightmin": 1.0, "heightmax": 7.89, "elevmin": 24.39, "elevmax": 25.09, "bldgarea": 382.4, "comment": "", "_mean": 5.9746797927702318, "_max": 6.6055221557617188, "layer": "mtl_auto_with_heights_part_1", "path": "D:/GIS/new_city_data/#data_for_fsa_wise_wf/preprocessed/mtl_auto_with_heights_divided/mtl_auto_with_heights_part_1.gpkg|layername=mtl_auto_with_heights_part_1", "nrcan_id": "27bc41b3-6916-4f9a-a28b-8cab1148ca36", "nrcan_area": 382.47454512608238, "inter_area": 47.753309711813927, "area_ratio": 0.12485356298958952, "sum_restore_group": 0, "sum_restore_reason": "keep", "sum_number_parts": 7, "sum_min_inter_area": 47.753309711813927, "sum_max_inter_area": 62.094046317622997, "sum_max_area_ratio": 0.16234818005248886, "restore_group": null, "restore_reason": null, "nrcan_in_id": "52721da8-2a5d-4329-8ec1-49e9309c5b6a", "ur_fid": 1, "ur_g_co_mrc": "12345", "ur_g_code_mun": "11223", "ur_g_arrond": "AAA11", "ur_g_no_lot": "1234510", "ur_g_utilisat": "1000", "ur_g_usag_pre": "Résidentiel", "ur_g_id_provi": "mock_prov014", "ur_g_sup_tota": 232.7, "ur_g_nb_logem": 1.0, "ur_g_descript": "Sysnthetic Data", "ur_g_anrole": "2026", "ur_g_date_cad": "2026-09-21 09:15:15.0000000", "ur_g_shape_le": 69.642195364696789, "ur_g_shape_ar": 232.54472065040272, "ur_r_fid": 831263, "ur_r_OBJECTID": 831263.0, "ur_id_provinc": "mock_prov014", "ur_r_code_mun": "66023", "ur_r_arrond": "REM33", "ur_r_rejet": 0, "ur_r_date_entre": "2015", "ur_r_mat18": "975543562180000000", "ur_r_ueid_provinc": "mock_prov014", "ur_r_uecode_mun": "66023", "ur_r_uerl0102a": "REM33", "ur_r_uerl0105a": "1000", "ur_r_uerl0301a": 8.99, "ur_r_uerl0302a": 232.7, "ur_r_uerl0304a": null, "ur_r_uerl0305a": null, "ur_r_uerl0306a": 2, "ur_r_uerl0307a": "1971", "ur_r_uerl0307b": "R", "ur_r_uerl0308a": 100.9, "ur_r_uerl0309a": "2", "ur_r_uerl0311a": 1, "ur_r_uerl0313a": null, "ur_r_uerl0310a": "5", "ur_r_ad_addr_count": "1", "ur_r_ad_addr_all": "8020  JEAN-DARCET", "ur_r_roll_id": "7be681b9-6556-4154-93e3-238ce3625c92", "ur_r_r_id_provinc": "mock_prov014", "ur_area_ex": null, "ur_ro_fid": null, "ur_ro_OBJECTID": null, "ur_ro_id_provinc": null, "ur_ro_code_mun": null, "ur_ro_arrond": null, "ur_ro_rejet": null, "ur_ro_date_entre": null, "ur_ro_mat18": null, "ur_ro_ueid_provinc": null, "ur_ro_uecode_mun": null, "ur_ro_uerl0102a": null, "ur_ro_uerl0105a": null, "ur_ro_uerl0301a": null, "ur_ro_uerl0302a": null, "ur_ro_uerl0304a": null, "ur_ro_uerl0305a": null, "ur_ro_uerl0306a": null, "ur_ro_uerl0307a": null, "ur_ro_uerl0307b": null, "ur_ro_uerl0308a": null, "ur_ro_uerl0309a": null, "ur_ro_uerl0311a": null, "ur_ro_uerl0313a": null, "ur_ro_uerl0310a": null, "ur_ro_ad_addr_count": null, "ur_ro_ad_addr_all": null, "ur_ro_roll_id": null, "ur_layer": "usage_roll_T1A", "ur_path": "D:/GIS/mtl_gisoo_fsa_data\\output_data\\T1A\\usage_roll\\usage_roll.gpkg", "ur_usage_roll_id": "1bf833cf-d803-4ed0-b53c-2807209e8bef", "g_co_mrc": null, "g_code_mun": null, "g_arrond": null, "g_no_lot": null, "g_utilisat": null, "g_usag_pre": null, "g_id_provi": null, "g_sup_tota": null, "g_nb_logem": null, "g_descript": null, "g_anrole": null, "g_date_cad": null, "g_shape_le": null, "g_shape_ar": null, "r_fid": null, "r_OBJECTID": null, "id_provinc": null, "r_code_mun": null, "r_arrond": null, "r_rejet": null, "r_date_entre": null, "r_mat18": null, "r_ueid_provinc": null, "r_uecode_mun": null, "r_uerl0102a": null, "r_uerl0105a": null, "r_uerl0301a": null, "r_uerl0302a": null, "r_uerl0304a": null, "r_uerl0305a": null, "r_uerl0306a": null, "r_uerl0307a": null, "r_uerl0307b": null, "r_uerl0308a": null, "r_uerl0309a": null, "r_uerl0311a": null, "r_uerl0313a": null, "r_uerl0310a": null, "r_ad_addr_count": null, "r_ad_addr_all": null, "r_roll_id": null, "r_r_id_provinc": null, "area_ex": null, "ro_fid": null, "ro_OBJECTID": null, "ro_id_provinc": null, "ro_code_mun": null, "ro_arrond": null, "ro_rejet": null, "ro_date_entre": null, "ro_mat18": null, "ro_ueid_provinc": null, "ro_uecode_mun": null, "ro_uerl0102a": null, "ro_uerl0105a": null, "ro_uerl0301a": null, "ro_uerl0302a": null, "ro_uerl0304a": null, "ro_uerl0305a": null, "ro_uerl0306a": null, "ro_uerl0307a": null, "ro_uerl0307b": null, "ro_uerl0308a": null, "ro_uerl0309a": null, "ro_uerl0311a": null, "ro_uerl0313a": null, "ro_uerl0310a": null, "ro_ad_addr_count": null, "ro_ad_addr_all": null, "ro_roll_id": null, "usage_roll_id": null, "FSA": "T1A", "citygisoo_id": "431325b1-1774-43da-bf68-a2b574921d4f", "citygisoo_area": 47.753309711813927, "processing_tool": "citygisoo", "processed_by": "Sabu GIS Cities" }, "geometry": { "type": "MultiPolygon", "coordinates": [ [ [ [ -73.594204866870015, 45.637817060997484 ], [ -73.594136635745272, 45.637753088933835 ], [ -73.5941956, 45.6377263 ], [ -73.5942615, 45.6377867 ], [ -73.594204866870015, 45.637817060997484 ] ] ] ] } },
{ "type": "Feature", "id": 2, "properties": { "id": 280881, "feature_id": "a834b01f-c69f-4322-b072-b74723892da1", "acqtech": 1360, "acqtech_en": "Lidar", "acqtech_fr": "Lidar", "provider": 461, "provider_en": null, "provider_fr": null, "datemin": "20151124", "datemax": "20151208", "haccmin": 2.0, "haccmax": 2.0, "vaccmin": 1.0, "vaccmax": 1.0, "heightmin": 1.08, "heightmax": 7.05, "elevmin": 24.47, "elevmax": 25.5, "bldgarea": 330.65, "comment": "", "_mean": 6.1152648314095099, "_max": 9.6106739044189453, "layer": "mtl_auto_with_heights_part_1", "path": "D:/GIS/new_city_data/#data_for_fsa_wise_wf/preprocessed/mtl_auto_with_heights_divided/mtl_auto_with_heights_part_1.gpkg|layername=mtl_auto_with_heights_part_1", "nrcan_id": "11e3ba99-842c-4a8a-9897-9acc0adb614d", "nrcan_area": 330.75213451357558, "inter_area": 54.810913147637621, "area_ratio": 0.16571597709640157, "sum_restore_group": 0, "sum_restore_reason": "keep", "sum_number_parts": 6, "sum_min_inter_area": 48.609116796636954, "sum_max_inter_area": 61.537207715213299, "sum_max_area_ratio": 0.18605233736651072, "restore_group": null, "restore_reason": null, "nrcan_in_id": "e3a91842-d104-4e4d-89c9-dc67351ef948", "ur_fid": 2, "ur_g_co_mrc": "12345", "ur_g_code_mun": "11223", "ur_g_arrond": "AAA11", "ur_g_no_lot": "1234511", "ur_g_utilisat": "1000", "ur_g_usag_pre": "Résidentiel", "ur_g_id_provi": "mock_prov013", "ur_g_sup_tota": 149.9, "ur_g_nb_logem": 1.0, "ur_g_descript": "Sysnthetic Data", "ur_g_anrole": "2026", "ur_g_date_cad": "2026-09-21 09:15:15.0000000", "ur_g_shape_le": 63.035354491059834, "ur_g_shape_ar": 148.36432073389784, "ur_r_fid": 831167, "ur_r_OBJECTID": 831167.0, "ur_id_provinc": "mock_prov013", "ur_r_code_mun": "66023", "ur_r_arrond": "REM33", "ur_r_rejet": 0, "ur_r_date_entre": "2015", "ur_r_mat18": "975543490230000000", "ur_r_ueid_provinc": "mock_prov013", "ur_r_uecode_mun": "66023", "ur_r_uerl0102a": "REM33", "ur_r_uerl0105a": "1000", "ur_r_uerl0301a": 5.79, "ur_r_uerl0302a": 149.9, "ur_r_uerl0304a": null, "ur_r_uerl0305a": null, "ur_r_uerl0306a": 2, "ur_r_uerl0307a": "1972", "ur_r_uerl0307b": "R", "ur_r_uerl0308a": 96.8, "ur_r_uerl0309a": "4", "ur_r_uerl0311a": 1, "ur_r_uerl0313a": null, "ur_r_uerl0310a": "5", "ur_r_ad_addr_count": "1", "ur_r_ad_addr_all": "12313  CLEMENT-ADER", "ur_r_roll_id": "0ab8694a-2f37-4a02-8db7-957b5725d720", "ur_r_r_id_provinc": "mock_prov013", "ur_area_ex": null, "ur_ro_fid": null, "ur_ro_OBJECTID": null, "ur_ro_id_provinc": null, "ur_ro_code_mun": null, "ur_ro_arrond": null, "ur_ro_rejet": null, "ur_ro_date_entre": null, "ur_ro_mat18": null, "ur_ro_ueid_provinc": null, "ur_ro_uecode_mun": null, "ur_ro_uerl0102a": null, "ur_ro_uerl0105a": null, "ur_ro_uerl0301a": null, "ur_ro_uerl0302a": null, "ur_ro_uerl0304a": null, "ur_ro_uerl0305a": null, "ur_ro_uerl0306a": null, "ur_ro_uerl0307a": null, "ur_ro_uerl0307b": null, "ur_ro_uerl0308a": null, "ur_ro_uerl0309a": null, "ur_ro_uerl0311a": null, "ur_ro_uerl0313a": null, "ur_ro_uerl0310a": null, "ur_ro_ad_addr_count": null, "ur_ro_ad_addr_all": null, "ur_ro_roll_id": null, "ur_layer": "usage_roll_T1A", "ur_path": "D:/GIS/mtl_gisoo_fsa_data\\output_data\\T1A\\usage_roll\\usage_roll.gpkg", "ur_usage_roll_id": "c1508f00-11fb-447c-b1fe-c5adaf31408f", "g_co_mrc": null, "g_code_mun": null, "g_arrond": null, "g_no_lot": null, "g_utilisat": null, "g_usag_pre": null, "g_id_provi": null, "g_sup_tota": null, "g_nb_logem": null, "g_descript": null, "g_anrole": null, "g_date_cad": null, "g_shape_le": null, "g_shape_ar": null, "r_fid": null, "r_OBJECTID": null, "id_provinc": null, "r_code_mun": null, "r_arrond": null, "r_rejet": null, "r_date_entre": null, "r_mat18": null, "r_ueid_provinc": null, "r_uecode_mun": null, "r_uerl0102a": null, "r_uerl0105a": null, "r_uerl0301a": null, "r_uerl0302a": null, "r_uerl0304a": null, "r_uerl0305a": null, "r_uerl0306a": null, "r_uerl0307a": null, "r_uerl0307b": null, "r_uerl0308a": null, "r_uerl0309a": null, "r_uerl0311a": null, "r_uerl0313a": null, "r_uerl0310a": null, "r_ad_addr_count": null, "r_ad_addr_all": null, "r_roll_id": null, "r_r_id_provinc": null, "area_ex": null, "ro_fid": null, "ro_OBJECTID": null, "ro_id_provinc": null, "ro_code_mun": null, "ro_arrond": null, "ro_rejet": null, "ro_date_entre": null, "ro_mat18": null, "ro_ueid_provinc": null, "ro_uecode_mun": null, "ro_uerl0102a": null, "ro_uerl0105a": null, "ro_uerl0301a": null, "ro_uerl0302a": null, "ro_uerl0304a": null, "ro_uerl0305a": null, "ro_uerl0306a": null, "ro_uerl0307a": null, "ro_uerl0307b": null, "ro_uerl0308a": null, "ro_uerl0309a": null, "ro_uerl0311a": null, "ro_uerl0313a": null, "ro_uerl0310a": null, "ro_ad_addr_count": null, "ro_ad_addr_all": null, "ro_roll_id": null, "usage_roll_id": null, "FSA": "T1A", "citygisoo_id": "4ab6da6f-9376-43ae-bb42-05d54663f3f5", "citygisoo_area": 54.810913147637621, "processing_tool": "citygisoo", "processed_by": "Sabu GIS Cities" }, "geometry": { "type": "MultiPolygon", "coordinates": [ [ [ [ -73.594215, 45.6375867 ], [ -73.5942104, 45.6375828 ], [ -73.594236, 45.6375703 ], [ -73.594231715383998, 45.637566010835585 ], [ -73.5943173648797, 45.637520954607609 ], [ -73.5943232, 45.6375265 ], [ -73.5943271, 45.6375302 ], [ -73.5943147, 45.6375363 ], [ -73.594348206663085, 45.637569527440895 ], [ -73.594252420435069, 45.637619885695948 ], [ -73.594215, 45.6375867 ] ] ] ] } },
{ "type": "Feature", "id": 3, "properties": { "id": 270724, "feature_id": "8984d39f-4edb-49f0-811b-1596f126fd06", "acqtech": 1360, "acqtech_en": "Lidar", "acqtech_fr": "Lidar", "provider": 461, "provider_en": null, "provider_fr": null, "datemin": "20151124", "datemax": "20151208", "haccmin": 2.0, "haccmax": 2.0, "vaccmin": 1.0, "vaccmax": 1.0, "heightmin": 1.0, "heightmax": 7.89, "elevmin": 24.39, "elevmax": 25.09, "bldgarea": 382.4, "comment": "", "_mean": 5.9746797927702318, "_max": 6.6055221557617188, "layer": "mtl_auto_with_heights_part_1", "path": "D:/GIS/new_city_data/#data_for_fsa_wise_wf/preprocessed/mtl_auto_with_heights_divided/mtl_auto_with_heights_part_1.gpkg|layername=mtl_auto_with_heights_part_1", "nrcan_id": "27bc41b3-6916-4f9a-a28b-8cab1148ca36", "nrcan_area": 382.47454512608238, "inter_area": 57.362080251565203, "area_ratio": 0.14997620359978686, "sum_restore_group": 0, "sum_restore_reason": "keep", "sum_number_parts": 7, "sum_min_inter_area": 47.753309711813927, "sum_max_inter_area": 62.094046317622997, "sum_max_area_ratio": 0.16234818005248886, "restore_group": null, "restore_reason": null, "nrcan_in_id": "50661164-ced0-4dde-8932-d34ba0dfc0bd", "ur_fid": 3, "ur_g_co_mrc": "12345", "ur_g_code_mun": "11223", "ur_g_arrond": "AAA11", "ur_g_no_lot": "1234512", "ur_g_utilisat": "1000", "ur_g_usag_pre": "Résidentiel", "ur_g_id_provi": "mock_prov017", "ur_g_sup_tota": 169.6, "ur_g_nb_logem": 1.0, "ur_g_descript": "Sysnthetic Data", "ur_g_anrole": "2026", "ur_g_date_cad": "2026-09-21 09:15:15.0000000", "ur_g_shape_le": 64.800370755627341, "ur_g_shape_ar": 169.67800858592653, "ur_r_fid": 831266, "ur_r_OBJECTID": 831266.0, "ur_id_provinc": "mock_prov017", "ur_r_code_mun": "66023", "ur_r_arrond": "REM33", "ur_r_rejet": 0, "ur_r_date_entre": "2015", "ur_r_mat18": "975543723480000000", "ur_r_ueid_provinc": "mock_prov017", "ur_r_uecode_mun": "66023", "ur_r_uerl0102a": "REM33", "ur_r_uerl0105a": "1000", "ur_r_uerl0301a": 6.55, "ur_r_uerl0302a": 169.6, "ur_r_uerl0304a": null, "ur_r_uerl0305a": null, "ur_r_uerl0306a": 2, "ur_r_uerl0307a": "1971", "ur_r_uerl0307b": "R", "ur_r_uerl0308a": 107.0, "ur_r_uerl0309a": "4", "ur_r_uerl0311a": 1, "ur_r_uerl0313a": null, "ur_r_uerl0310a": "5", "ur_r_ad_addr_count": "1", "ur_r_ad_addr_all": "8032  JEAN-DARCET", "ur_r_roll_id": "afb84b57-a634-4018-8db7-48d30a149cfe", "ur_r_r_id_provinc": "mock_prov017", "ur_area_ex": null, "ur_ro_fid": null, "ur_ro_OBJECTID": null, "ur_ro_id_provinc": null, "ur_ro_code_mun": null, "ur_ro_arrond": null, "ur_ro_rejet": null, "ur_ro_date_entre": null, "ur_ro_mat18": null, "ur_ro_ueid_provinc": null, "ur_ro_uecode_mun": null, "ur_ro_uerl0102a": null, "ur_ro_uerl0105a": null, "ur_ro_uerl0301a": null, "ur_ro_uerl0302a": null, "ur_ro_uerl0304a": null, "ur_ro_uerl0305a": null, "ur_ro_uerl0306a": null, "ur_ro_uerl0307a": null, "ur_ro_uerl0307b": null, "ur_ro_uerl0308a": null, "ur_ro_uerl0309a": null, "ur_ro_uerl0311a": null, "ur_ro_uerl0313a": null, "ur_ro_uerl0310a": null, "ur_ro_ad_addr_count": null, "ur_ro_ad_addr_all": null, "ur_ro_roll_id": null, "ur_layer": "usage_roll_T1A", "ur_path": "D:/GIS/mtl_gisoo_fsa_data\\output_data\\T1A\\usage_roll\\usage_roll.gpkg", "ur_usage_roll_id": "44ebaea9-7424-4daf-a610-03c0fc5ff995", "g_co_mrc": null, "g_code_mun": null, "g_arrond": null, "g_no_lot": null, "g_utilisat": null, "g_usag_pre": null, "g_id_provi": null, "g_sup_tota": null, "g_nb_logem": null, "g_descript": null, "g_anrole": null, "g_date_cad": null, "g_shape_le": null, "g_shape_ar": null, "r_fid": null, "r_OBJECTID": null, "id_provinc": null, "r_code_mun": null, "r_arrond": null, "r_rejet": null, "r_date_entre": null, "r_mat18": null, "r_ueid_provinc": null, "r_uecode_mun": null, "r_uerl0102a": null, "r_uerl0105a": null, "r_uerl0301a": null, "r_uerl0302a": null, "r_uerl0304a": null, "r_uerl0305a": null, "r_uerl0306a": null, "r_uerl0307a": null, "r_uerl0307b": null, "r_uerl0308a": null, "r_uerl0309a": null, "r_uerl0311a": null, "r_uerl0313a": null, "r_uerl0310a": null, "r_ad_addr_count": null, "r_ad_addr_all": null, "r_roll_id": null, "r_r_id_provinc": null, "area_ex": null, "ro_fid": null, "ro_OBJECTID": null, "ro_id_provinc": null, "ro_code_mun": null, "ro_arrond": null, "ro_rejet": null, "ro_date_entre": null, "ro_mat18": null, "ro_ueid_provinc": null, "ro_uecode_mun": null, "ro_uerl0102a": null, "ro_uerl0105a": null, "ro_uerl0301a": null, "ro_uerl0302a": null, "ro_uerl0304a": null, "ro_uerl0305a": null, "ro_uerl0306a": null, "ro_uerl0307a": null, "ro_uerl0307b": null, "ro_uerl0308a": null, "ro_uerl0309a": null, "ro_uerl0311a": null, "ro_uerl0313a": null, "ro_uerl0310a": null, "ro_ad_addr_count": null, "ro_ad_addr_all": null, "ro_roll_id": null, "usage_roll_id": null, "FSA": "T1A", "citygisoo_id": "a0d21bc7-5297-4b37-bc88-a58074d5f337", "citygisoo_area": 57.362080251565203, "processing_tool": "citygisoo", "processed_by": "Sabu GIS Cities" }, "geometry": { "type": "MultiPolygon", "coordinates": [ [ [ [ -73.5940017, 45.6379067 ], [ -73.593998758183389, 45.63790819052042 ], [ -73.593933512194596, 45.637847426240377 ], [ -73.593997592666454, 45.637808791927903 ], [ -73.59406701008983, 45.637873597625706 ], [ -73.5940017, 45.6379067 ] ] ] ] } },
{ "type": "Feature", "id": 4, "properties": { "id": 270724, "feature_id": "8984d39f-4edb-49f0-811b-1596f126fd06", "acqtech": 1360, "acqtech_en": "Lidar", "acqtech_fr": "Lidar", "provider": 461, "provider_en": null, "provider_fr": null, "datemin": "20151124", "datemax": "20151208", "haccmin": 2.0, "haccmax": 2.0, "vaccmin": 1.0, "vaccmax": 1.0, "heightmin": 1.0, "heightmax": 7.89, "elevmin": 24.39, "elevmax": 25.09, "bldgarea": 382.4, "comment": "", "_mean": 5.9746797927702318, "_max": 6.6055221557617188, "layer": "mtl_auto_with_heights_part_1", "path": "D:/GIS/new_city_data/#data_for_fsa_wise_wf/preprocessed/mtl_auto_with_heights_divided/mtl_auto_with_heights_part_1.gpkg|layername=mtl_auto_with_heights_part_1", "nrcan_id": "27bc41b3-6916-4f9a-a28b-8cab1148ca36", "nrcan_area": 382.47454512608238, "inter_area": 53.630405958741903, "area_ratio": 0.14021954308374349, "sum_restore_group": 0, "sum_restore_reason": "keep", "sum_number_parts": 7, "sum_min_inter_area": 47.753309711813927, "sum_max_inter_area": 62.094046317622997, "sum_max_area_ratio": 0.16234818005248886, "restore_group": null, "restore_reason": null, "nrcan_in_id": "ccf12edb-c739-4fe7-8f3e-f8c5a9bdefe5", "ur_fid": 4, "ur_g_co_mrc": "12345", "ur_g_code_mun": "11223", "ur_g_arrond": "AAA11", "ur_g_no_lot": "1234514", "ur_g_utilisat": "1000", "ur_g_usag_pre": "Résidentiel", "ur_g_id_provi": "mock_prov018", "ur_g_sup_tota": 169.6, "ur_g_nb_logem": 1.0, "ur_g_descript": "Sysnthetic Data", "ur_g_anrole": "2026", "ur_g_date_cad": "2026-09-21 09:15:15.0000000", "ur_g_shape_le": 64.777354324428885, "ur_g_shape_ar": 169.39136936523232, "ur_r_fid": 831267, "ur_r_OBJECTID": 831267.0, "ur_id_provinc": "mock_prov018", "ur_r_code_mun": "66023", "ur_r_arrond": "REM33", "ur_r_rejet": 0, "ur_r_date_entre": "2015", "ur_r_mat18": "975543773880000000", "ur_r_ueid_provinc": "mock_prov018", "ur_r_uecode_mun": "66023", "ur_r_uerl0102a": "REM33", "ur_r_uerl0105a": "1000", "ur_r_uerl0301a": 6.55, "ur_r_uerl0302a": 169.6, "ur_r_uerl0304a": null, "ur_r_uerl0305a": null, "ur_r_uerl0306a": 2, "ur_r_uerl0307a": "1971", "ur_r_uerl0307b": "R", "ur_r_uerl0308a": 107.0, "ur_r_uerl0309a": "4", "ur_r_uerl0311a": 1, "ur_r_uerl0313a": null, "ur_r_uerl0310a": "5", "ur_r_ad_addr_count": "1", "ur_r_ad_addr_all": "8036  JEAN-DARCET", "ur_r_roll_id": "33e1c667-322c-416c-bfae-82ad67652ace", "ur_r_r_id_provinc": "mock_prov018", "ur_area_ex": null, "ur_ro_fid": null, "ur_ro_OBJECTID": null, "ur_ro_id_provinc": null, "ur_ro_code_mun": null, "ur_ro_arrond": null, "ur_ro_rejet": null, "ur_ro_date_entre": null, "ur_ro_mat18": null, "ur_ro_ueid_provinc": null, "ur_ro_uecode_mun": null, "ur_ro_uerl0102a": null, "ur_ro_uerl0105a": null, "ur_ro_uerl0301a": null, "ur_ro_uerl0302a": null, "ur_ro_uerl0304a": null, "ur_ro_uerl0305a": null, "ur_ro_uerl0306a": null, "ur_ro_uerl0307a": null, "ur_ro_uerl0307b": null, "ur_ro_uerl0308a": null, "ur_ro_uerl0309a": null, "ur_ro_uerl0311a": null, "ur_ro_uerl0313a": null, "ur_ro_uerl0310a": null, "ur_ro_ad_addr_count": null, "ur_ro_ad_addr_all": null, "ur_ro_roll_id": null, "ur_layer": "usage_roll_T1A", "ur_path": "D:/GIS/mtl_gisoo_fsa_data\\output_data\\T1A\\usage_roll\\usage_roll.gpkg", "ur_usage_roll_id": "02c9ae74-59e8-4f2b-9015-182381b046b1", "g_co_mrc": null, "g_code_mun": null, "g_arrond": null, "g_no_lot": null, "g_utilisat": null, "g_usag_pre": null, "g_id_provi": null, "g_sup_tota": null, "g_nb_logem": null, "g_descript": null, "g_anrole": null, "g_date_cad": null, "g_shape_le": null, "g_shape_ar": null, "r_fid": null, "r_OBJECTID": null, "id_provinc": null, "r_code_mun": null, "r_arrond": null, "r_rejet": null, "r_date_entre": null, "r_mat18": null, "r_ueid_provinc": null, "r_uecode_mun": null, "r_uerl0102a": null, "r_uerl0105a": null, "r_uerl0301a": null, "r_uerl0302a": null, "r_uerl0304a": null, "r_uerl0305a": null, "r_uerl0306a": null, "r_uerl0307a": null, "r_uerl0307b": null, "r_uerl0308a": null, "r_uerl0309a": null, "r_uerl0311a": null, "r_uerl0313a": null, "r_uerl0310a": null, "r_ad_addr_count": null, "r_ad_addr_all": null, "r_roll_id": null, "r_r_id_provinc": null, "area_ex": null, "ro_fid": null, "ro_OBJECTID": null, "ro_id_provinc": null, "ro_code_mun": null, "ro_arrond": null, "ro_rejet": null, "ro_date_entre": null, "ro_mat18": null, "ro_ueid_provinc": null, "ro_uecode_mun": null, "ro_uerl0102a": null, "ro_uerl0105a": null, "ro_uerl0301a": null, "ro_uerl0302a": null, "ro_uerl0304a": null, "ro_uerl0305a": null, "ro_uerl0306a": null, "ro_uerl0307a": null, "ro_uerl0307b": null, "ro_uerl0308a": null, "ro_uerl0309a": null, "ro_uerl0311a": null, "ro_uerl0313a": null, "ro_uerl0310a": null, "ro_ad_addr_count": null, "ro_ad_addr_all": null, "ro_roll_id": null, "usage_roll_id": null, "FSA": "T1A", "citygisoo_id": "81531b79-5c4f-425f-8dba-d42163481491", "citygisoo_area": 53.630405958741903, "processing_tool": "citygisoo", "processed_by": "Sabu GIS Cities" }, "geometry": { "type": "MultiPolygon", "coordinates": [ [ [ [ -73.593930586773894, 45.637942730701226 ], [ -73.593869563656199, 45.637885981009774 ], [ -73.593933512194596, 45.637847426240377 ], [ -73.593998758183389, 45.63790819052042 ], [ -73.593930586773894, 45.637942730701226 ] ] ] ] } },
{ "type": "Feature", "id": 5, "properties": { "id": 270724, "feature_id": "8984d39f-4edb-49f0-811b-1596f126fd06", "acqtech": 1360, "acqtech_en": "Lidar", "acqtech_fr": "Lidar", "provider": 461, "provider_en": null, "provider_fr": null, "datemin": "20151124", "datemax": "20151208", "haccmin": 2.0, "haccmax": 2.0, "vaccmin": 1.0, "vaccmax": 1.0, "heightmin": 1.0, "heightmax": 7.89, "elevmin": 24.39, "elevmax": 25.09, "bldgarea": 382.4, "comment": "", "_mean": 5.9746797927702318, "_max": 6.6055221557617188, "layer": "mtl_auto_with_heights_part_1", "path": "D:/GIS/new_city_data/#data_for_fsa_wise_wf/preprocessed/mtl_auto_with_heights_divided/mtl_auto_with_heights_part_1.gpkg|layername=mtl_auto_with_heights_part_1", "nrcan_id": "27bc41b3-6916-4f9a-a28b-8cab1148ca36", "nrcan_area": 382.47454512608238, "inter_area": 52.871141467243433, "area_ratio": 0.13823440576892382, "sum_restore_group": 0, "sum_restore_reason": "keep", "sum_number_parts": 7, "sum_min_inter_area": 47.753309711813927, "sum_max_inter_area": 62.094046317622997, "sum_max_area_ratio": 0.16234818005248886, "restore_group": null, "restore_reason": null, "nrcan_in_id": "c6f63304-7938-4826-9e80-a1e881bee2fc", "ur_fid": 5, "ur_g_co_mrc": "12345", "ur_g_code_mun": "11223", "ur_g_arrond": "AAA11", "ur_g_no_lot": "1234516", "ur_g_utilisat": "1000", "ur_g_usag_pre": "Résidentiel", "ur_g_id_provi": "mock_prov015", "ur_g_sup_tota": 149.9, "ur_g_nb_logem": 1.0, "ur_g_descript": "Sysnthetic Data", "ur_g_anrole": "2026", "ur_g_date_cad": "2026-09-21 09:15:15.0000000", "ur_g_shape_le": 63.276297544707376, "ur_g_shape_ar": 149.99594646553822, "ur_r_fid": 831264, "ur_r_OBJECTID": 831264.0, "ur_id_provinc": "mock_prov015", "ur_r_code_mun": "66023", "ur_r_arrond": "REM33", "ur_r_rejet": 0, "ur_r_date_entre": "2015", "ur_r_mat18": "975543622650000000", "ur_r_ueid_provinc": "mock_prov015", "ur_r_uecode_mun": "66023", "ur_r_uerl0102a": "REM33", "ur_r_uerl0105a": "1000", "ur_r_uerl0301a": 5.79, "ur_r_uerl0302a": 149.9, "ur_r_uerl0304a": null, "ur_r_uerl0305a": null, "ur_r_uerl0306a": 2, "ur_r_uerl0307a": "1971", "ur_r_uerl0307b": "R", "ur_r_uerl0308a": 98.8, "ur_r_uerl0309a": "4", "ur_r_uerl0311a": 1, "ur_r_uerl0313a": null, "ur_r_uerl0310a": "5", "ur_r_ad_addr_count": "1", "ur_r_ad_addr_all": "8024  JEAN-DARCET", "ur_r_roll_id": "58d4d140-ca2c-4d30-bd9c-7c3125d12fa4", "ur_r_r_id_provinc": "mock_prov015", "ur_area_ex": null, "ur_ro_fid": null, "ur_ro_OBJECTID": null, "ur_ro_id_provinc": null, "ur_ro_code_mun": null, "ur_ro_arrond": null, "ur_ro_rejet": null, "ur_ro_date_entre": null, "ur_ro_mat18": null, "ur_ro_ueid_provinc": null, "ur_ro_uecode_mun": null, "ur_ro_uerl0102a": null, "ur_ro_uerl0105a": null, "ur_ro_uerl0301a": null, "ur_ro_uerl0302a": null, "ur_ro_uerl0304a": null, "ur_ro_uerl0305a": null, "ur_ro_uerl0306a": null, "ur_ro_uerl0307a": null, "ur_ro_uerl0307b": null, "ur_ro_uerl0308a": null, "ur_ro_uerl0309a": null, "ur_ro_uerl0311a": null, "ur_ro_uerl0313a": null, "ur_ro_uerl0310a": null, "ur_ro_ad_addr_count": null, "ur_ro_ad_addr_all": null, "ur_ro_roll_id": null, "ur_layer": "usage_roll_T1A", "ur_path": "D:/GIS/mtl_gisoo_fsa_data\\output_data\\T1A\\usage_roll\\usage_roll.gpkg", "ur_usage_roll_id": "e5c5c85d-53b6-40c6-9f2b-336b2cc32b78", "g_co_mrc": null, "g_code_mun": null, "g_arrond": null, "g_no_lot": null, "g_utilisat": null, "g_usag_pre": null, "g_id_provi": null, "g_sup_tota": null, "g_nb_logem": null, "g_descript": null, "g_anrole": null, "g_date_cad": null, "g_shape_le": null, "g_shape_ar": null, "r_fid": null, "r_OBJECTID": null, "id_provinc": null, "r_code_mun": null, "r_arrond": null, "r_rejet": null, "r_date_entre": null, "r_mat18": null, "r_ueid_provinc": null, "r_uecode_mun": null, "r_uerl0102a": null, "r_uerl0105a": null, "r_uerl0301a": null, "r_uerl0302a": null, "r_uerl0304a": null, "r_uerl0305a": null, "r_uerl0306a": null, "r_uerl0307a": null, "r_uerl0307b": null, "r_uerl0308a": null, "r_uerl0309a": null, "r_uerl0311a": null, "r_uerl0313a": null, "r_uerl0310a": null, "r_ad_addr_count": null, "r_ad_addr_all": null, "r_roll_id": null, "r_r_id_provinc": null, "area_ex": null, "ro_fid": null, "ro_OBJECTID": null, "ro_id_provinc": null, "ro_code_mun": null, "ro_arrond": null, "ro_rejet": null, "ro_date_entre": null, "ro_mat18": null, "ro_ueid_provinc": null, "ro_uecode_mun": null, "ro_uerl0102a": null, "ro_uerl0105a": null, "ro_uerl0301a": null, "ro_uerl0302a": null, "ro_uerl0304a": null, "ro_uerl0305a": null, "ro_uerl0306a": null, "ro_uerl0307a": null, "ro_uerl0307b": null, "ro_uerl0308a": null, "ro_uerl0309a": null, "ro_uerl0311a": null, "ro_uerl0313a": null, "ro_uerl0310a": null, "ro_ad_addr_count": null, "ro_ad_addr_all": null, "ro_roll_id": null, "usage_roll_id": null, "FSA": "T1A", "citygisoo_id": "bee7d751-c071-44f5-be63-1784fe0a604b", "citygisoo_area": 52.871141467243433, "processing_tool": "citygisoo", "processed_by": "Sabu GIS Cities" }, "geometry": { "type": "MultiPolygon", "coordinates": [ [ [ [ -73.594145733473781, 45.637848762386668 ], [ -73.594073948411008, 45.63778156935571 ], [ -73.594136635745272, 45.637753088933835 ], [ -73.594204866870015, 45.637817060997484 ], [ -73.594145733473781, 45.637848762386668 ] ] ] ] } },
{ "type": "Feature", "id": 6, "properties": { "id": 270724, "feature_id": "8984d39f-4edb-49f0-811b-1596f126fd06", "acqtech": 1360, "acqtech_en": "Lidar", "acqtech_fr": "Lidar", "provider": 461, "provider_en": null, "provider_fr": null, "datemin": "20151124", "datemax": "20151208", "haccmin": 2.0, "haccmax": 2.0, "vaccmin": 1.0, "vaccmax": 1.0, "heightmin": 1.0, "heightmax": 7.89, "elevmin": 24.39, "elevmax": 25.09, "bldgarea": 382.4, "comment": "", "_mean": 5.9746797927702318, "_max": 6.6055221557617188, "layer": "mtl_auto_with_heights_part_1", "path": "D:/GIS/new_city_data/#data_for_fsa_wise_wf/preprocessed/mtl_auto_with_heights_divided/mtl_auto_with_heights_part_1.gpkg|layername=mtl_auto_with_heights_part_1", "nrcan_id": "27bc41b3-6916-4f9a-a28b-8cab1148ca36", "nrcan_area": 382.47454512608238, "inter_area": 55.098777369363233, "area_ratio": 0.1440586780780404, "sum_restore_group": 0, "sum_restore_reason": "keep", "sum_number_parts": 7, "sum_min_inter_area": 47.753309711813927, "sum_max_inter_area": 62.094046317622997, "sum_max_area_ratio": 0.16234818005248886, "restore_group": null, "restore_reason": null, "nrcan_in_id": "261820ae-7bc4-42cf-9ac8-48f0d1bcb31a", "ur_fid": 6, "ur_g_co_mrc": "12345", "ur_g_code_mun": "11223", "ur_g_arrond": "AAA11", "ur_g_no_lot": "1234517", "ur_g_utilisat": "1000", "ur_g_usag_pre": "Résidentiel", "ur_g_id_provi": "mock_prov003", "ur_g_sup_tota": 232.7, "ur_g_nb_logem": 1.0, "ur_g_descript": "Sysnthetic Data", "ur_g_anrole": "2026", "ur_g_date_cad": "2026-09-21 09:15:15.0000000", "ur_g_shape_le": 69.616725345987064, "ur_g_shape_ar": 231.70778619737715, "ur_r_fid": 824738, "ur_r_OBJECTID": 824738.0, "ur_id_provinc": "mock_prov003", "ur_r_code_mun": "66023", "ur_r_arrond": "REM33", "ur_r_rejet": 0, "ur_r_date_entre": "2015", "ur_r_mat18": "975543884680000000", "ur_r_ueid_provinc": "mock_prov003", "ur_r_uecode_mun": "66023", "ur_r_uerl0102a": "REM33", "ur_r_uerl0105a": "1000", "ur_r_uerl0301a": 8.99, "ur_r_uerl0302a": 232.7, "ur_r_uerl0304a": null, "ur_r_uerl0305a": null, "ur_r_uerl0306a": 2, "ur_r_uerl0307a": "1971", "ur_r_uerl0307b": "R", "ur_r_uerl0308a": 100.9, "ur_r_uerl0309a": "2", "ur_r_uerl0311a": 1, "ur_r_uerl0313a": null, "ur_r_uerl0310a": "5", "ur_r_ad_addr_count": "1", "ur_r_ad_addr_all": "8044  JEAN-DARCET", "ur_r_roll_id": "73432701-36be-410e-8973-7b059763233e", "ur_r_r_id_provinc": "mock_prov003", "ur_area_ex": null, "ur_ro_fid": null, "ur_ro_OBJECTID": null, "ur_ro_id_provinc": null, "ur_ro_code_mun": null, "ur_ro_arrond": null, "ur_ro_rejet": null, "ur_ro_date_entre": null, "ur_ro_mat18": null, "ur_ro_ueid_provinc": null, "ur_ro_uecode_mun": null, "ur_ro_uerl0102a": null, "ur_ro_uerl0105a": null, "ur_ro_uerl0301a": null, "ur_ro_uerl0302a": null, "ur_ro_uerl0304a": null, "ur_ro_uerl0305a": null, "ur_ro_uerl0306a": null, "ur_ro_uerl0307a": null, "ur_ro_uerl0307b": null, "ur_ro_uerl0308a": null, "ur_ro_uerl0309a": null, "ur_ro_uerl0311a": null, "ur_ro_uerl0313a": null, "ur_ro_uerl0310a": null, "ur_ro_ad_addr_count": null, "ur_ro_ad_addr_all": null, "ur_ro_roll_id": null, "ur_layer": "usage_roll_T1A", "ur_path": "D:/GIS/mtl_gisoo_fsa_data\\output_data\\T1A\\usage_roll\\usage_roll.gpkg", "ur_usage_roll_id": "3257445d-d0b4-4747-8632-2575a34c27de", "g_co_mrc": null, "g_code_mun": null, "g_arrond": null, "g_no_lot": null, "g_utilisat": null, "g_usag_pre": null, "g_id_provi": null, "g_sup_tota": null, "g_nb_logem": null, "g_descript": null, "g_anrole": null, "g_date_cad": null, "g_shape_le": null, "g_shape_ar": null, "r_fid": null, "r_OBJECTID": null, "id_provinc": null, "r_code_mun": null, "r_arrond": null, "r_rejet": null, "r_date_entre": null, "r_mat18": null, "r_ueid_provinc": null, "r_uecode_mun": null, "r_uerl0102a": null, "r_uerl0105a": null, "r_uerl0301a": null, "r_uerl0302a": null, "r_uerl0304a": null, "r_uerl0305a": null, "r_uerl0306a": null, "r_uerl0307a": null, "r_uerl0307b": null, "r_uerl0308a": null, "r_uerl0309a": null, "r_uerl0311a": null, "r_uerl0313a": null, "r_uerl0310a": null, "r_ad_addr_count": null, "r_ad_addr_all": null, "r_roll_id": null, "r_r_id_provinc": null, "area_ex": null, "ro_fid": null, "ro_OBJECTID": null, "ro_id_provinc": null, "ro_code_mun": null, "ro_arrond": null, "ro_rejet": null, "ro_date_entre": null, "ro_mat18": null, "ro_ueid_provinc": null, "ro_uecode_mun": null, "ro_uerl0102a": null, "ro_uerl0105a": null, "ro_uerl0301a": null, "ro_uerl0302a": null, "ro_uerl0304a": null, "ro_uerl0305a": null, "ro_uerl0306a": null, "ro_uerl0307a": null, "ro_uerl0307b": null, "ro_uerl0308a": null, "ro_uerl0309a": null, "ro_uerl0311a": null, "ro_uerl0313a": null, "ro_uerl0310a": null, "ro_ad_addr_count": null, "ro_ad_addr_all": null, "ro_roll_id": null, "usage_roll_id": null, "FSA": "T1A", "citygisoo_id": "ac645ab7-d7c6-4beb-8b21-037bd1ef827b", "citygisoo_area": 55.098777369363233, "processing_tool": "citygisoo", "processed_by": "Sabu GIS Cities" }, "geometry": { "type": "MultiPolygon", "coordinates": [ [ [ [ -73.5938242, 45.6380201 ], [ -73.5938202, 45.6380163 ], [ -73.5937542, 45.6379555 ], [ -73.593813158157417, 45.637919972533616 ], [ -73.593884700304926, 45.637986506271062 ], [ -73.5938242, 45.6380201 ] ] ] ] } },
{ "type": "Feature", "id": 7, "properties": { "id": 280881, "feature_id": "a834b01f-c69f-4322-b072-b74723892da1", "acqtech": 1360, "acqtech_en": "Lidar", "acqtech_fr": "Lidar", "provider": 461, "provider_en": null, "provider_fr": null, "datemin": "20151124", "datemax": "20151208", "haccmin": 2.0, "haccmax": 2.0, "vaccmin": 1.0, "vaccmax": 1.0, "heightmin": 1.08, "heightmax": 7.05, "elevmin": 24.47, "elevmax": 25.5, "bldgarea": 330.65, "comment": "", "_mean": 6.1152648314095099, "_max": 9.6106739044189453, "layer": "mtl_auto_with_heights_part_1", "path": "D:/GIS/new_city_data/#data_for_fsa_wise_wf/preprocessed/mtl_auto_with_heights_divided/mtl_auto_with_heights_part_1.gpkg|layername=mtl_auto_with_heights_part_1", "nrcan_id": "11e3ba99-842c-4a8a-9897-9acc0adb614d", "nrcan_area": 330.75213451357558, "inter_area": 53.002103924751282, "area_ratio": 0.16024720143590135, "sum_restore_group": 0, "sum_restore_reason": "keep", "sum_number_parts": 6, "sum_min_inter_area": 48.609116796636954, "sum_max_inter_area": 61.537207715213299, "sum_max_area_ratio": 0.18605233736651072, "restore_group": null, "restore_reason": null, "nrcan_in_id": "3153885d-b686-43c8-99cb-3222f027fa98", "ur_fid": 7, "ur_g_co_mrc": "12345", "ur_g_code_mun": "11223", "ur_g_arrond": "AAA11", "ur_g_no_lot": "1234519", "ur_g_utilisat": "1000", "ur_g_usag_pre": "Résidentiel", "ur_g_id_provi": "mock_prov012", "ur_g_sup_tota": 149.9, "ur_g_nb_logem": 1.0, "ur_g_descript": "Sysnthetic Data", "ur_g_anrole": "2026", "ur_g_date_cad": "2026-09-21 09:15:15.0000000", "ur_g_shape_le": 63.065053629931114, "ur_g_shape_ar": 148.7127016193231, "ur_r_fid": 831166, "ur_r_OBJECTID": 831166.0, "ur_id_provinc": "mock_prov012", "ur_r_code_mun": "66023", "ur_r_arrond": "REM33", "ur_r_rejet": 0, "ur_r_date_entre": "2015", "ur_r_mat18": "975543450620000000", "ur_r_ueid_provinc": "mock_prov012", "ur_r_uecode_mun": "66023", "ur_r_uerl0102a": "REM33", "ur_r_uerl0105a": "1000", "ur_r_uerl0301a": 5.79, "ur_r_uerl0302a": 149.9, "ur_r_uerl0304a": null, "ur_r_uerl0305a": null, "ur_r_uerl0306a": 2, "ur_r_uerl0307a": "1971", "ur_r_uerl0307b": "R", "ur_r_uerl0308a": 96.8, "ur_r_uerl0309a": "4", "ur_r_uerl0311a": 1, "ur_r_uerl0313a": null, "ur_r_uerl0310a": "5", "ur_r_ad_addr_count": "1", "ur_r_ad_addr_all": "12319  CLEMENT-ADER", "ur_r_roll_id": "453b481b-844d-4def-a12f-8c6a286c3bd2", "ur_r_r_id_provinc": "mock_prov012", "ur_area_ex": null, "ur_ro_fid": null, "ur_ro_OBJECTID": null, "ur_ro_id_provinc": null, "ur_ro_code_mun": null, "ur_ro_arrond": null, "ur_ro_rejet": null, "ur_ro_date_entre": null, "ur_ro_mat18": null, "ur_ro_ueid_provinc": null, "ur_ro_uecode_mun": null, "ur_ro_uerl0102a": null, "ur_ro_uerl0105a": null, "ur_ro_uerl0301a": null, "ur_ro_uerl0302a": null, "ur_ro_uerl0304a": null, "ur_ro_uerl0305a": null, "ur_ro_uerl0306a": null, "ur_ro_uerl0307a": null, "ur_ro_uerl0307b": null, "ur_ro_uerl0308a": null, "ur_ro_uerl0309a": null, "ur_ro_uerl0311a": null, "ur_ro_uerl0313a": null, "ur_ro_uerl0310a": null, "ur_ro_ad_addr_count": null, "ur_ro_ad_addr_all": null, "ur_ro_roll_id": null, "ur_layer": "usage_roll_T1A", "ur_path": "D:/GIS/mtl_gisoo_fsa_data\\output_data\\T1A\\usage_roll\\usage_roll.gpkg", "ur_usage_roll_id": "f56f2667-08b7-48b9-a68e-be3392a679b8", "g_co_mrc": null, "g_code_mun": null, "g_arrond": null, "g_no_lot": null, "g_utilisat": null, "g_usag_pre": null, "g_id_provi": null, "g_sup_tota": null, "g_nb_logem": null, "g_descript": null, "g_anrole": null, "g_date_cad": null, "g_shape_le": null, "g_shape_ar": null, "r_fid": null, "r_OBJECTID": null, "id_provinc": null, "r_code_mun": null, "r_arrond": null, "r_rejet": null, "r_date_entre": null, "r_mat18": null, "r_ueid_provinc": null, "r_uecode_mun": null, "r_uerl0102a": null, "r_uerl0105a": null, "r_uerl0301a": null, "r_uerl0302a": null, "r_uerl0304a": null, "r_uerl0305a": null, "r_uerl0306a": null, "r_uerl0307a": null, "r_uerl0307b": null, "r_uerl0308a": null, "r_uerl0309a": null, "r_uerl0311a": null, "r_uerl0313a": null, "r_uerl0310a": null, "r_ad_addr_count": null, "r_ad_addr_all": null, "r_roll_id": null, "r_r_id_provinc": null, "area_ex": null, "ro_fid": null, "ro_OBJECTID": null, "ro_id_provinc": null, "ro_code_mun": null, "ro_arrond": null, "ro_rejet": null, "ro_date_entre": null, "ro_mat18": null, "ro_ueid_provinc": null, "ro_uecode_mun": null, "ro_uerl0102a": null, "ro_uerl0105a": null, "ro_uerl0301a": null, "ro_uerl0302a": null, "ro_uerl0304a": null, "ro_uerl0305a": null, "ro_uerl0306a": null, "ro_uerl0307a": null, "ro_uerl0307b": null, "ro_uerl0308a": null, "ro_uerl0309a": null, "ro_uerl0311a": null, "ro_uerl0313a": null, "ro_uerl0310a": null, "ro_ad_addr_count": null, "ro_ad_addr_all": null, "ro_roll_id": null, "usage_roll_id": null, "FSA": "T1A", "citygisoo_id": "f1326f14-ee6d-4da1-9b7b-126f925e164f", "citygisoo_area": 53.002103924751282, "processing_tool": "citygisoo", "processed_by": "Sabu GIS Cities" }, "geometry": { "type": "MultiPolygon", "coordinates": [ [ [ [ -73.594252420435069, 45.637619885695948 ], [ -73.594348206663085, 45.637569527440895 ], [ -73.5943747, 45.6375958 ], [ -73.594390971126472, 45.63761192649423 ], [ -73.594298420119031, 45.637660679757346 ], [ -73.594252420435069, 45.637619885695948 ] ] ] ] } },
{ "type": "Feature", "id": 8, "properties": { "id": 280881, "feature_id": "a834b01f-c69f-4322-b072-b74723892da1", "acqtech": 1360, "acqtech_en": "Lidar", "acqtech_fr": "Lidar", "provider": 461, "provider_en": null, "provider_fr": null, "datemin": "20151124", "datemax": "20151208", "haccmin": 2.0, "haccmax": 2.0, "vaccmin": 1.0, "vaccmax": 1.0, "heightmin": 1.08, "heightmax": 7.05, "elevmin": 24.47, "elevmax": 25.5, "bldgarea": 330.65, "comment": "", "_mean": 6.1152648314095099, "_max": 9.6106739044189453, "layer": "mtl_auto_with_heights_part_1", "path": "D:/GIS/new_city_data/#data_for_fsa_wise_wf/preprocessed/mtl_auto_with_heights_divided/mtl_auto_with_heights_part_1.gpkg|layername=mtl_auto_with_heights_part_1", "nrcan_id": "11e3ba99-842c-4a8a-9897-9acc0adb614d", "nrcan_area": 330.75213451357558, "inter_area": 48.609116796636954, "area_ratio": 0.14696539107185055, "sum_restore_group": 0, "sum_restore_reason": "keep", "sum_number_parts": 6, "sum_min_inter_area": 48.609116796636954, "sum_max_inter_area": 61.537207715213299, "sum_max_area_ratio": 0.18605233736651072, "restore_group": null, "restore_reason": null, "nrcan_in_id": "357b8e72-42ea-4032-9327-0298ac3407bb", "ur_fid": 8, "ur_g_co_mrc": "12345", "ur_g_code_mun": "11223", "ur_g_arrond": "AAA11", "ur_g_no_lot": "1234520", "ur_g_utilisat": "1000", "ur_g_usag_pre": "Résidentiel", "ur_g_id_provi": "mock_prov009", "ur_g_sup_tota": 252.4, "ur_g_nb_logem": 1.0, "ur_g_descript": "Sysnthetic Data", "ur_g_anrole": "2026", "ur_g_date_cad": "2026-09-21 09:15:15.0000000", "ur_g_shape_le": 71.179665551324248, "ur_g_shape_ar": 252.41047500793863, "ur_r_fid": 831163, "ur_r_OBJECTID": 831163.0, "ur_id_provinc": "mock_prov009", "ur_r_code_mun": "66023", "ur_r_arrond": "REM33", "ur_r_rejet": 0, "ur_r_date_entre": "2015", "ur_r_mat18": "975542579030000000", "ur_r_ueid_provinc": "mock_prov009", "ur_r_uecode_mun": "66023", "ur_r_uerl0102a": "REM33", "ur_r_uerl0105a": "1000", "ur_r_uerl0301a": 9.75, "ur_r_uerl0302a": 252.4, "ur_r_uerl0304a": null, "ur_r_uerl0305a": null, "ur_r_uerl0306a": 2, "ur_r_uerl0307a": "1971", "ur_r_uerl0307b": "R", "ur_r_uerl0308a": 109.1, "ur_r_uerl0309a": "2", "ur_r_uerl0311a": 1, "ur_r_uerl0313a": null, "ur_r_uerl0310a": "5", "ur_r_ad_addr_count": "1", "ur_r_ad_addr_all": "12301  CLEMENT-ADER", "ur_r_roll_id": "fce00740-325b-4731-a18e-82fb89592312", "ur_r_r_id_provinc": "mock_prov009", "ur_area_ex": null, "ur_ro_fid": null, "ur_ro_OBJECTID": null, "ur_ro_id_provinc": null, "ur_ro_code_mun": null, "ur_ro_arrond": null, "ur_ro_rejet": null, "ur_ro_date_entre": null, "ur_ro_mat18": null, "ur_ro_ueid_provinc": null, "ur_ro_uecode_mun": null, "ur_ro_uerl0102a": null, "ur_ro_uerl0105a": null, "ur_ro_uerl0301a": null, "ur_ro_uerl0302a": null, "ur_ro_uerl0304a": null, "ur_ro_uerl0305a": null, "ur_ro_uerl0306a": null, "ur_ro_uerl0307a": null, "ur_ro_uerl0307b": null, "ur_ro_uerl0308a": null, "ur_ro_uerl0309a": null, "ur_ro_uerl0311a": null, "ur_ro_uerl0313a": null, "ur_ro_uerl0310a": null, "ur_ro_ad_addr_count": null, "ur_ro_ad_addr_all": null, "ur_ro_roll_id": null, "ur_layer": "usage_roll_T1A", "ur_path": "D:/GIS/mtl_gisoo_fsa_data\\output_data\\T1A\\usage_roll\\usage_roll.gpkg", "ur_usage_roll_id": "9733ccbd-7673-47f1-919c-2b93cc9fd5a8", "g_co_mrc": null, "g_code_mun": null, "g_arrond": null, "g_no_lot": null, "g_utilisat": null, "g_usag_pre": null, "g_id_provi": null, "g_sup_tota": null, "g_nb_logem": null, "g_descript": null, "g_anrole": null, "g_date_cad": null, "g_shape_le": null, "g_shape_ar": null, "r_fid": null, "r_OBJECTID": null, "id_provinc": null, "r_code_mun": null, "r_arrond": null, "r_rejet": null, "r_date_entre": null, "r_mat18": null, "r_ueid_provinc": null, "r_uecode_mun": null, "r_uerl0102a": null, "r_uerl0105a": null, "r_uerl0301a": null, "r_uerl0302a": null, "r_uerl0304a": null, "r_uerl0305a": null, "r_uerl0306a": null, "r_uerl0307a": null, "r_uerl0307b": null, "r_uerl0308a": null, "r_uerl0309a": null, "r_uerl0311a": null, "r_uerl0313a": null, "r_uerl0310a": null, "r_ad_addr_count": null, "r_ad_addr_all": null, "r_roll_id": null, "r_r_id_provinc": null, "area_ex": null, "ro_fid": null, "ro_OBJECTID": null, "ro_id_provinc": null, "ro_code_mun": null, "ro_arrond": null, "ro_rejet": null, "ro_date_entre": null, "ro_mat18": null, "ro_ueid_provinc": null, "ro_uecode_mun": null, "ro_uerl0102a": null, "ro_uerl0105a": null, "ro_uerl0301a": null, "ro_uerl0302a": null, "ro_uerl0304a": null, "ro_uerl0305a": null, "ro_uerl0306a": null, "ro_uerl0307a": null, "ro_uerl0307b": null, "ro_uerl0308a": null, "ro_uerl0309a": null, "ro_uerl0311a": null, "ro_uerl0313a": null, "ro_uerl0310a": null, "ro_ad_addr_count": null, "ro_ad_addr_all": null, "ro_roll_id": null, "usage_roll_id": null, "FSA": "T1A", "citygisoo_id": "3dd57209-8f68-41a6-afed-39740edf8791", "citygisoo_area": 48.609116796636954, "processing_tool": "citygisoo", "processed_by": "Sabu GIS Cities" }, "geometry": { "type": "MultiPolygon", "coordinates": [ [ [ [ -73.5941418, 45.637476 ], [ -73.5941386, 45.6374729 ], [ -73.5942166, 45.6374339 ], [ -73.5942225, 45.6374308 ], [ -73.594267524623362, 45.637473589041264 ], [ -73.594183489674023, 45.637517733930579 ], [ -73.5941418, 45.637476 ] ] ] ] } },
{ "type": "Feature", "id": 9, "properties": { "id": 280881, "feature_id": "a834b01f-c69f-4322-b072-b74723892da1", "acqtech": 1360, "acqtech_en": "Lidar", "acqtech_fr": "Lidar", "provider": 461, "provider_en": null, "provider_fr": null, "datemin": "20151124", "datemax": "20151208", "haccmin": 2.0, "haccmax": 2.0, "vaccmin": 1.0, "vaccmax": 1.0, "heightmin": 1.08, "heightmax": 7.05, "elevmin": 24.47, "elevmax": 25.5, "bldgarea": 330.65, "comment": "", "_mean": 6.1152648314095099, "_max": 9.6106739044189453, "layer": "mtl_auto_with_heights_part_1", "path": "D:/GIS/new_city_data/#data_for_fsa_wise_wf/preprocessed/mtl_auto_with_heights_divided/mtl_auto_with_heights_part_1.gpkg|layername=mtl_auto_with_heights_part_1", "nrcan_id": "11e3ba99-842c-4a8a-9897-9acc0adb614d", "nrcan_area": 330.75213451357558, "inter_area": 61.537207715213299, "area_ratio": 0.18605233736651072, "sum_restore_group": 0, "sum_restore_reason": "keep", "sum_number_parts": 6, "sum_min_inter_area": 48.609116796636954, "sum_max_inter_area": 61.537207715213299, "sum_max_area_ratio": 0.18605233736651072, "restore_group": null, "restore_reason": null, "nrcan_in_id": "74b33796-9711-4e90-8d5c-c710840690f2", "ur_fid": 9, "ur_g_co_mrc": "12345", "ur_g_code_mun": "11223", "ur_g_arrond": "AAA11", "ur_g_no_lot": "1234521", "ur_g_utilisat": "1000", "ur_g_usag_pre": "Résidentiel", "ur_g_id_provi": "mock_prov010", "ur_g_sup_tota": 247.9, "ur_g_nb_logem": 1.0, "ur_g_descript": "Sysnthetic Data", "ur_g_anrole": "2026", "ur_g_date_cad": "2026-09-21 09:15:15.0000000", "ur_g_shape_le": 69.107858002114128, "ur_g_shape_ar": 246.85875895845697, "ur_r_fid": 831164, "ur_r_OBJECTID": 831164.0, "ur_id_provinc": "mock_prov010", "ur_r_code_mun": "66023", "ur_r_arrond": "REM33", "ur_r_rejet": 0, "ur_r_date_entre": "2015", "ur_r_mat18": "975543371760000000", "ur_r_ueid_provinc": "mock_prov010", "ur_r_uecode_mun": "66023", "ur_r_uerl0102a": "REM33", "ur_r_uerl0105a": "1000", "ur_r_uerl0301a": 5.18, "ur_r_uerl0302a": 247.9, "ur_r_uerl0304a": null, "ur_r_uerl0305a": null, "ur_r_uerl0306a": 2, "ur_r_uerl0307a": "1971", "ur_r_uerl0307b": "R", "ur_r_uerl0308a": 109.1, "ur_r_uerl0309a": "2", "ur_r_uerl0311a": 1, "ur_r_uerl0313a": null, "ur_r_uerl0310a": "5", "ur_r_ad_addr_count": "1", "ur_r_ad_addr_all": "12331  CLEMENT-ADER", "ur_r_roll_id": "a9cca1d7-7abe-4595-b97a-0252aee1d5c9", "ur_r_r_id_provinc": "mock_prov010", "ur_area_ex": null, "ur_ro_fid": null, "ur_ro_OBJECTID": null, "ur_ro_id_provinc": null, "ur_ro_code_mun": null, "ur_ro_arrond": null, "ur_ro_rejet": null, "ur_ro_date_entre": null, "ur_ro_mat18": null, "ur_ro_ueid_provinc": null, "ur_ro_uecode_mun": null, "ur_ro_uerl0102a": null, "ur_ro_uerl0105a": null, "ur_ro_uerl0301a": null, "ur_ro_uerl0302a": null, "ur_ro_uerl0304a": null, "ur_ro_uerl0305a": null, "ur_ro_uerl0306a": null, "ur_ro_uerl0307a": null, "ur_ro_uerl0307b": null, "ur_ro_uerl0308a": null, "ur_ro_uerl0309a": null, "ur_ro_uerl0311a": null, "ur_ro_uerl0313a": null, "ur_ro_uerl0310a": null, "ur_ro_ad_addr_count": null, "ur_ro_ad_addr_all": null, "ur_ro_roll_id": null, "ur_layer": "usage_roll_T1A", "ur_path": "D:/GIS/mtl_gisoo_fsa_data\\output_data\\T1A\\usage_roll\\usage_roll.gpkg", "ur_usage_roll_id": "32bbc6b9-9544-4b4f-946e-18bd7a6653f2", "g_co_mrc": null, "g_code_mun": null, "g_arrond": null, "g_no_lot": null, "g_utilisat": null, "g_usag_pre": null, "g_id_provi": null, "g_sup_tota": null, "g_nb_logem": null, "g_descript": null, "g_anrole": null, "g_date_cad": null, "g_shape_le": null, "g_shape_ar": null, "r_fid": null, "r_OBJECTID": null, "id_provinc": null, "r_code_mun": null, "r_arrond": null, "r_rejet": null, "r_date_entre": null, "r_mat18": null, "r_ueid_provinc": null, "r_uecode_mun": null, "r_uerl0102a": null, "r_uerl0105a": null, "r_uerl0301a": null, "r_uerl0302a": null, "r_uerl0304a": null, "r_uerl0305a": null, "r_uerl0306a": null, "r_uerl0307a": null, "r_uerl0307b": null, "r_uerl0308a": null, "r_uerl0309a": null, "r_uerl0311a": null, "r_uerl0313a": null, "r_uerl0310a": null, "r_ad_addr_count": null, "r_ad_addr_all": null, "r_roll_id": null, "r_r_id_provinc": null, "area_ex": null, "ro_fid": null, "ro_OBJECTID": null, "ro_id_provinc": null, "ro_code_mun": null, "ro_arrond": null, "ro_rejet": null, "ro_date_entre": null, "ro_mat18": null, "ro_ueid_provinc": null, "ro_uecode_mun": null, "ro_uerl0102a": null, "ro_uerl0105a": null, "ro_uerl0301a": null, "ro_uerl0302a": null, "ro_uerl0304a": null, "ro_uerl0305a": null, "ro_uerl0306a": null, "ro_uerl0307a": null, "ro_uerl0307b": null, "ro_uerl0308a": null, "ro_uerl0309a": null, "ro_uerl0311a": null, "ro_uerl0313a": null, "ro_uerl0310a": null, "ro_ad_addr_count": null, "ro_ad_addr_all": null, "ro_roll_id": null, "usage_roll_id": null, "FSA": "T1A", "citygisoo_id": "4a749bbd-a828-4c43-8c69-e4de76fa17a0", "citygisoo_area": 61.537207715213299, "processing_tool": "citygisoo", "processed_by": "Sabu GIS Cities" }, "geometry": { "type": "MultiPolygon", "coordinates": [ [ [ [ -73.5945142, 45.6377018 ], [ -73.5944302, 45.6377465 ], [ -73.594368327254216, 45.637697272778901 ], [ -73.594458081127755, 45.637650002280921 ], [ -73.5945142, 45.6377018 ] ] ] ] } },
{ "type": "Feature", "id": 10, "properties": { "id": 280881, "feature_id": "a834b01f-c69f-4322-b072-b74723892da1", "acqtech": 1360, "acqtech_en": "Lidar", "acqtech_fr": "Lidar", "provider": 461, "provider_en": null, "provider_fr": null, "datemin": "20151124", "datemax": "20151208", "haccmin": 2.0, "haccmax": 2.0, "vaccmin": 1.0, "vaccmax": 1.0, "heightmin": 1.08, "heightmax": 7.05, "elevmin": 24.47, "elevmax": 25.5, "bldgarea": 330.65, "comment": "", "_mean": 6.1152648314095099, "_max": 9.6106739044189453, "layer": "mtl_auto_with_heights_part_1", "path": "D:/GIS/new_city_data/#data_for_fsa_wise_wf/preprocessed/mtl_auto_with_heights_divided/mtl_auto_with_heights_part_1.gpkg|layername=mtl_auto_with_heights_part_1", "nrcan_id": "11e3ba99-842c-4a8a-9897-9acc0adb614d", "nrcan_area": 330.75213451357558, "inter_area": 54.109652116894722, "area_ratio": 0.16359577602264519, "sum_restore_group": 0, "sum_restore_reason": "keep", "sum_number_parts": 6, "sum_min_inter_area": 48.609116796636954, "sum_max_inter_area": 61.537207715213299, "sum_max_area_ratio": 0.18605233736651072, "restore_group": null, "restore_reason": null, "nrcan_in_id": "f10f6145-7caa-48aa-8ce4-a200da43e3b3", "ur_fid": 10, "ur_g_co_mrc": "12345", "ur_g_code_mun": "11223", "ur_g_arrond": "AAA11", "ur_g_no_lot": "1234524", "ur_g_utilisat": "1000", "ur_g_usag_pre": "Résidentiel", "ur_g_id_provi": "mock_prov008", "ur_g_sup_tota": 169.6, "ur_g_nb_logem": 1.0, "ur_g_descript": "Sysnthetic Data", "ur_g_anrole": "2026", "ur_g_date_cad": "2026-09-21 09:15:15.0000000", "ur_g_shape_le": 64.645729122995078, "ur_g_shape_ar": 168.73021349810972, "ur_r_fid": 831162, "ur_r_OBJECTID": 831162.0, "ur_id_provinc": "mock_prov008", "ur_r_code_mun": "66023", "ur_r_arrond": "REM33", "ur_r_rejet": 0, "ur_r_date_entre": "2015", "ur_r_mat18": "975542529790000000", "ur_r_ueid_provinc": "mock_prov008", "ur_r_uecode_mun": "66023", "ur_r_uerl0102a": "REM33", "ur_r_uerl0105a": "1000", "ur_r_uerl0301a": 6.55, "ur_r_uerl0302a": 169.6, "ur_r_uerl0304a": null, "ur_r_uerl0305a": null, "ur_r_uerl0306a": 2, "ur_r_uerl0307a": "1971", "ur_r_uerl0307b": "R", "ur_r_uerl0308a": 109.1, "ur_r_uerl0309a": "4", "ur_r_uerl0311a": 1, "ur_r_uerl0313a": null, "ur_r_uerl0310a": "5", "ur_r_ad_addr_count": "1", "ur_r_ad_addr_all": "12307  CLEMENT-ADER", "ur_r_roll_id": "b58ad497-bca9-45f0-8289-4f19d1af4c68", "ur_r_r_id_provinc": "mock_prov008", "ur_area_ex": null, "ur_ro_fid": null, "ur_ro_OBJECTID": null, "ur_ro_id_provinc": null, "ur_ro_code_mun": null, "ur_ro_arrond": null, "ur_ro_rejet": null, "ur_ro_date_entre": null, "ur_ro_mat18": null, "ur_ro_ueid_provinc": null, "ur_ro_uecode_mun": null, "ur_ro_uerl0102a": null, "ur_ro_uerl0105a": null, "ur_ro_uerl0301a": null, "ur_ro_uerl0302a": null, "ur_ro_uerl0304a": null, "ur_ro_uerl0305a": null, "ur_ro_uerl0306a": null, "ur_ro_uerl0307a": null, "ur_ro_uerl0307b": null, "ur_ro_uerl0308a": null, "ur_ro_uerl0309a": null, "ur_ro_uerl0311a": null, "ur_ro_uerl0313a": null, "ur_ro_uerl0310a": null, "ur_ro_ad_addr_count": null, "ur_ro_ad_addr_all": null, "ur_ro_roll_id": null, "ur_layer": "usage_roll_T1A", "ur_path": "D:/GIS/mtl_gisoo_fsa_data\\output_data\\T1A\\usage_roll\\usage_roll.gpkg", "ur_usage_roll_id": "fc7da8f4-dd65-4d42-aa29-b7ecaf2cfd28", "g_co_mrc": null, "g_code_mun": null, "g_arrond": null, "g_no_lot": null, "g_utilisat": null, "g_usag_pre": null, "g_id_provi": null, "g_sup_tota": null, "g_nb_logem": null, "g_descript": null, "g_anrole": null, "g_date_cad": null, "g_shape_le": null, "g_shape_ar": null, "r_fid": null, "r_OBJECTID": null, "id_provinc": null, "r_code_mun": null, "r_arrond": null, "r_rejet": null, "r_date_entre": null, "r_mat18": null, "r_ueid_provinc": null, "r_uecode_mun": null, "r_uerl0102a": null, "r_uerl0105a": null, "r_uerl0301a": null, "r_uerl0302a": null, "r_uerl0304a": null, "r_uerl0305a": null, "r_uerl0306a": null, "r_uerl0307a": null, "r_uerl0307b": null, "r_uerl0308a": null, "r_uerl0309a": null, "r_uerl0311a": null, "r_uerl0313a": null, "r_uerl0310a": null, "r_ad_addr_count": null, "r_ad_addr_all": null, "r_roll_id": null, "r_r_id_provinc": null, "area_ex": null, "ro_fid": null, "ro_OBJECTID": null, "ro_id_provinc": null, "ro_code_mun": null, "ro_arrond": null, "ro_rejet": null, "ro_date_entre": null, "ro_mat18": null, "ro_ueid_provinc": null, "ro_uecode_mun": null, "ro_uerl0102a": null, "ro_uerl0105a": null, "ro_uerl0301a": null, "ro_uerl0302a": null, "ro_uerl0304a": null, "ro_uerl0305a": null, "ro_uerl0306a": null, "ro_uerl0307a": null, "ro_uerl0307b": null, "ro_uerl0308a": null, "ro_uerl0309a": null, "ro_uerl0311a": null, "ro_uerl0313a": null, "ro_uerl0310a": null, "ro_ad_addr_count": null, "ro_ad_addr_all": null, "ro_roll_id": null, "usage_roll_id": null, "FSA": "T1A", "citygisoo_id": "f02f8d39-9e9a-4a53-a4d5-424d447fd23c", "citygisoo_area": 54.109652116894722, "processing_tool": "citygisoo", "processed_by": "Sabu GIS Cities" }, "geometry": { "type": "MultiPolygon", "coordinates": [ [ [ [ -73.594183489674023, 45.637517733930579 ], [ -73.594267524623362, 45.637473589041264 ], [ -73.5943173648797, 45.637520954607609 ], [ -73.594231715383998, 45.637566010835585 ], [ -73.594183489674023, 45.637517733930579 ] ] ] ] } },
{ "type": "Feature", "id": 11, "properties": { "id": 270724, "feature_id": "8984d39f-4edb-49f0-811b-1596f126fd06", "acqtech": 1360, "acqtech_en": "Lidar", "acqtech_fr": "Lidar", "provider": 461, "provider_en": null, "provider_fr": null, "datemin": "20151124", "datemax": "20151208", "haccmin": 2.0, "haccmax": 2.0, "vaccmin": 1.0, "vaccmax": 1.0, "heightmin": 1.0, "heightmax": 7.89, "elevmin": 24.39, "elevmax": 25.09, "bldgarea": 382.4, "comment": "", "_mean": 5.9746797927702318, "_max": 6.6055221557617188, "layer": "mtl_auto_with_heights_part_1", "path": "D:/GIS/new_city_data/#data_for_fsa_wise_wf/preprocessed/mtl_auto_with_heights_divided/mtl_auto_with_heights_part_1.gpkg|layername=mtl_auto_with_heights_part_1", "nrcan_id": "27bc41b3-6916-4f9a-a28b-8cab1148ca36", "nrcan_area": 382.47454512608238, "inter_area": 62.094046317622997, "area_ratio": 0.16234818005248886, "sum_restore_group": 0, "sum_restore_reason": "keep", "sum_number_parts": 7, "sum_min_inter_area": 47.753309711813927, "sum_max_inter_area": 62.094046317622997, "sum_max_area_ratio": 0.16234818005248886, "restore_group": null, "restore_reason": null, "nrcan_in_id": "a506b123-cd3a-4ee3-8ac4-0ada01af8175", "ur_fid": 11, "ur_g_co_mrc": "12345", "ur_g_code_mun": "11223", "ur_g_arrond": "AAA11", "ur_g_no_lot": "1234525", "ur_g_utilisat": "1000", "ur_g_usag_pre": "Résidentiel", "ur_g_id_provi": "mock_prov016", "ur_g_sup_tota": 169.6, "ur_g_nb_logem": 1.0, "ur_g_descript": "Sysnthetic Data", "ur_g_anrole": "2026", "ur_g_date_cad": "2026-09-21 09:15:15.0000000", "ur_g_shape_le": 64.810647254278862, "ur_g_shape_ar": 169.78329629536614, "ur_r_fid": 831265, "ur_r_OBJECTID": 831265.0, "ur_id_provinc": "mock_prov016", "ur_r_code_mun": "66023", "ur_r_arrond": "REM33", "ur_r_rejet": 0, "ur_r_date_entre": "2015", "ur_r_mat18": "975543673060000000", "ur_r_ueid_provinc": "mock_prov016", "ur_r_uecode_mun": "66023", "ur_r_uerl0102a": "REM33", "ur_r_uerl0105a": "1000", "ur_r_uerl0301a": 6.55, "ur_r_uerl0302a": 169.6, "ur_r_uerl0304a": null, "ur_r_uerl0305a": null, "ur_r_uerl0306a": 2, "ur_r_uerl0307a": "1971", "ur_r_uerl0307b": "R", "ur_r_uerl0308a": 105.5, "ur_r_uerl0309a": "4", "ur_r_uerl0311a": 1, "ur_r_uerl0313a": null, "ur_r_uerl0310a": "5", "ur_r_ad_addr_count": "1", "ur_r_ad_addr_all": "8028  JEAN-DARCET", "ur_r_roll_id": "ad738abe-8a36-4823-a9da-8aacdda8a288", "ur_r_r_id_provinc": "mock_prov016", "ur_area_ex": null, "ur_ro_fid": null, "ur_ro_OBJECTID": null, "ur_ro_id_provinc": null, "ur_ro_code_mun": null, "ur_ro_arrond": null, "ur_ro_rejet": null, "ur_ro_date_entre": null, "ur_ro_mat18": null, "ur_ro_ueid_provinc": null, "ur_ro_uecode_mun": null, "ur_ro_uerl0102a": null, "ur_ro_uerl0105a": null, "ur_ro_uerl0301a": null, "ur_ro_uerl0302a": null, "ur_ro_uerl0304a": null, "ur_ro_uerl0305a": null, "ur_ro_uerl0306a": null, "ur_ro_uerl0307a": null, "ur_ro_uerl0307b": null, "ur_ro_uerl0308a": null, "ur_ro_uerl0309a": null, "ur_ro_uerl0311a": null, "ur_ro_uerl0313a": null, "ur_ro_uerl0310a": null, "ur_ro_ad_addr_count": null, "ur_ro_ad_addr_all": null, "ur_ro_roll_id": null, "ur_layer": "usage_roll_T1A", "ur_path": "D:/GIS/mtl_gisoo_fsa_data\\output_data\\T1A\\usage_roll\\usage_roll.gpkg", "ur_usage_roll_id": "0e8058af-c3c1-4239-a604-5218e16fdacf", "g_co_mrc": null, "g_code_mun": null, "g_arrond": null, "g_no_lot": null, "g_utilisat": null, "g_usag_pre": null, "g_id_provi": null, "g_sup_tota": null, "g_nb_logem": null, "g_descript": null, "g_anrole": null, "g_date_cad": null, "g_shape_le": null, "g_shape_ar": null, "r_fid": null, "r_OBJECTID": null, "id_provinc": null, "r_code_mun": null, "r_arrond": null, "r_rejet": null, "r_date_entre": null, "r_mat18": null, "r_ueid_provinc": null, "r_uecode_mun": null, "r_uerl0102a": null, "r_uerl0105a": null, "r_uerl0301a": null, "r_uerl0302a": null, "r_uerl0304a": null, "r_uerl0305a": null, "r_uerl0306a": null, "r_uerl0307a": null, "r_uerl0307b": null, "r_uerl0308a": null, "r_uerl0309a": null, "r_uerl0311a": null, "r_uerl0313a": null, "r_uerl0310a": null, "r_ad_addr_count": null, "r_ad_addr_all": null, "r_roll_id": null, "r_r_id_provinc": null, "area_ex": null, "ro_fid": null, "ro_OBJECTID": null, "ro_id_provinc": null, "ro_code_mun": null, "ro_arrond": null, "ro_rejet": null, "ro_date_entre": null, "ro_mat18": null, "ro_ueid_provinc": null, "ro_uecode_mun": null, "ro_uerl0102a": null, "ro_uerl0105a": null, "ro_uerl0301a": null, "ro_uerl0302a": null, "ro_uerl0304a": null, "ro_uerl0305a": null, "ro_uerl0306a": null, "ro_uerl0307a": null, "ro_uerl0307b": null, "ro_uerl0308a": null, "ro_uerl0309a": null, "ro_uerl0311a": null, "ro_uerl0313a": null, "ro_uerl0310a": null, "ro_ad_addr_count": null, "ro_ad_addr_all": null, "ro_roll_id": null, "usage_roll_id": null, "FSA": "T1A", "citygisoo_id": "f719c79b-5f5a-4b1e-ad02-f538aaa3cff7", "citygisoo_area": 62.094046317622997, "processing_tool": "citygisoo", "processed_by": "Sabu GIS Cities" }, "geometry": { "type": "MultiPolygon", "coordinates": [ [ [ [ -73.594141, 45.6378513 ], [ -73.5941362, 45.6378539 ], [ -73.5941258, 45.6378438 ], [ -73.59406701008983, 45.637873597625706 ], [ -73.593997592666454, 45.637808791927903 ], [ -73.5940553, 45.637774 ], [ -73.5940609, 45.6377706 ], [ -73.5940719, 45.6377825 ], [ -73.594073948411008, 45.63778156935571 ], [ -73.594145733473781, 45.637848762386668 ], [ -73.594141, 45.6378513 ] ] ] ] } },
{ "type": "Feature", "id": 12, "properties": { "id": 270724, "feature_id": "8984d39f-4edb-49f0-811b-1596f126fd06", "acqtech": 1360, "acqtech_en": "Lidar", "acqtech_fr": "Lidar", "provider": 461, "provider_en": null, "provider_fr": null, "datemin": "20151124", "datemax": "20151208", "haccmin": 2.0, "haccmax": 2.0, "vaccmin": 1.0, "vaccmax": 1.0, "heightmin": 1.0, "heightmax": 7.89, "elevmin": 24.39, "elevmax": 25.09, "bldgarea": 382.4, "comment": "", "_mean": 5.9746797927702318, "_max": 6.6055221557617188, "layer": "mtl_auto_with_heights_part_1", "path": "D:/GIS/new_city_data/#data_for_fsa_wise_wf/preprocessed/mtl_auto_with_heights_divided/mtl_auto_with_heights_part_1.gpkg|layername=mtl_auto_with_heights_part_1", "nrcan_id": "27bc41b3-6916-4f9a-a28b-8cab1148ca36", "nrcan_area": 382.47454512608238, "inter_area": 53.664925627643242, "area_ratio": 0.14030979659039178, "sum_restore_group": 0, "sum_restore_reason": "keep", "sum_number_parts": 7, "sum_min_inter_area": 47.753309711813927, "sum_max_inter_area": 62.094046317622997, "sum_max_area_ratio": 0.16234818005248886, "restore_group": null, "restore_reason": null, "nrcan_in_id": "97dc704b-c9e0-4596-8fd1-f52d22df271a", "ur_fid": 12, "ur_g_co_mrc": "12345", "ur_g_code_mun": "11223", "ur_g_arrond": "AAA11", "ur_g_no_lot": "1234526", "ur_g_utilisat": "1000", "ur_g_usag_pre": "Résidentiel", "ur_g_id_provi": "mock_prov002", "ur_g_sup_tota": 149.9, "ur_g_nb_logem": 1.0, "ur_g_descript": "Sysnthetic Data", "ur_g_anrole": "2026", "ur_g_date_cad": "2026-09-21 09:15:15.0000000", "ur_g_shape_le": 63.238645116509829, "ur_g_shape_ar": 149.46069861419056, "ur_r_fid": 824737, "ur_r_OBJECTID": 824737.0, "ur_id_provinc": "mock_prov002", "ur_r_code_mun": "66023", "ur_r_arrond": "REM33", "ur_r_rejet": 0, "ur_r_date_entre": "2015", "ur_r_mat18": "975543824120000000", "ur_r_ueid_provinc": "mock_prov002", "ur_r_uecode_mun": "66023", "ur_r_uerl0102a": "REM33", "ur_r_uerl0105a": "1000", "ur_r_uerl0301a": 5.79, "ur_r_uerl0302a": 149.9, "ur_r_uerl0304a": null, "ur_r_uerl0305a": null, "ur_r_uerl0306a": 2, "ur_r_uerl0307a": "1971", "ur_r_uerl0307b": "R", "ur_r_uerl0308a": 101.4, "ur_r_uerl0309a": "4", "ur_r_uerl0311a": 1, "ur_r_uerl0313a": null, "ur_r_uerl0310a": "5", "ur_r_ad_addr_count": "1", "ur_r_ad_addr_all": "8040  JEAN-DARCET", "ur_r_roll_id": "423f7832-f3fc-4afb-b9a9-0ba32af4ec40", "ur_r_r_id_provinc": "mock_prov002", "ur_area_ex": null, "ur_ro_fid": null, "ur_ro_OBJECTID": null, "ur_ro_id_provinc": null, "ur_ro_code_mun": null, "ur_ro_arrond": null, "ur_ro_rejet": null, "ur_ro_date_entre": null, "ur_ro_mat18": null, "ur_ro_ueid_provinc": null, "ur_ro_uecode_mun": null, "ur_ro_uerl0102a": null, "ur_ro_uerl0105a": null, "ur_ro_uerl0301a": null, "ur_ro_uerl0302a": null, "ur_ro_uerl0304a": null, "ur_ro_uerl0305a": null, "ur_ro_uerl0306a": null, "ur_ro_uerl0307a": null, "ur_ro_uerl0307b": null, "ur_ro_uerl0308a": null, "ur_ro_uerl0309a": null, "ur_ro_uerl0311a": null, "ur_ro_uerl0313a": null, "ur_ro_uerl0310a": null, "ur_ro_ad_addr_count": null, "ur_ro_ad_addr_all": null, "ur_ro_roll_id": null, "ur_layer": "usage_roll_T1A", "ur_path": "D:/GIS/mtl_gisoo_fsa_data\\output_data\\T1A\\usage_roll\\usage_roll.gpkg", "ur_usage_roll_id": "57c9b3b0-fe67-4892-b77c-785f869fbe2f", "g_co_mrc": null, "g_code_mun": null, "g_arrond": null, "g_no_lot": null, "g_utilisat": null, "g_usag_pre": null, "g_id_provi": null, "g_sup_tota": null, "g_nb_logem": null, "g_descript": null, "g_anrole": null, "g_date_cad": null, "g_shape_le": null, "g_shape_ar": null, "r_fid": null, "r_OBJECTID": null, "id_provinc": null, "r_code_mun": null, "r_arrond": null, "r_rejet": null, "r_date_entre": null, "r_mat18": null, "r_ueid_provinc": null, "r_uecode_mun": null, "r_uerl0102a": null, "r_uerl0105a": null, "r_uerl0301a": null, "r_uerl0302a": null, "r_uerl0304a": null, "r_uerl0305a": null, "r_uerl0306a": null, "r_uerl0307a": null, "r_uerl0307b": null, "r_uerl0308a": null, "r_uerl0309a": null, "r_uerl0311a": null, "r_uerl0313a": null, "r_uerl0310a": null, "r_ad_addr_count": null, "r_ad_addr_all": null, "r_roll_id": null, "r_r_id_provinc": null, "area_ex": null, "ro_fid": null, "ro_OBJECTID": null, "ro_id_provinc": null, "ro_code_mun": null, "ro_arrond": null, "ro_rejet": null, "ro_date_entre": null, "ro_mat18": null, "ro_ueid_provinc": null, "ro_uecode_mun": null, "ro_uerl0102a": null, "ro_uerl0105a": null, "ro_uerl0301a": null, "ro_uerl0302a": null, "ro_uerl0304a": null, "ro_uerl0305a": null, "ro_uerl0306a": null, "ro_uerl0307a": null, "ro_uerl0307b": null, "ro_uerl0308a": null, "ro_uerl0309a": null, "ro_uerl0311a": null, "ro_uerl0313a": null, "ro_uerl0310a": null, "ro_ad_addr_count": null, "ro_ad_addr_all": null, "ro_roll_id": null, "usage_roll_id": null, "FSA": "T1A", "citygisoo_id": "14dd2579-7b1b-4f23-8c78-98647ee00766", "citygisoo_area": 53.664925627643242, "processing_tool": "citygisoo", "processed_by": "Sabu GIS Cities" }, "geometry": { "type": "MultiPolygon", "coordinates": [ [ [ [ -73.5939267, 45.6379447 ], [ -73.5939391, 45.6379563 ], [ -73.593884700304926, 45.637986506271062 ], [ -73.593813158157417, 45.637919972533616 ], [ -73.5938624, 45.6378903 ], [ -73.593869563656199, 45.637885981009774 ], [ -73.593930586773894, 45.637942730701226 ], [ -73.5939267, 45.6379447 ] ] ] ] } },
{ "type": "Feature", "id": 13, "properties": { "id": 280881, "feature_id": "a834b01f-c69f-4322-b072-b74723892da1", "acqtech": 1360, "acqtech_en": "Lidar", "acqtech_fr": "Lidar", "provider": 461, "provider_en": null, "provider_fr": null, "datemin": "20151124", "datemax": "20151208", "haccmin": 2.0, "haccmax": 2.0, "vaccmin": 1.0, "vaccmax": 1.0, "heightmin": 1.08, "heightmax": 7.05, "elevmin": 24.47, "elevmax": 25.5, "bldgarea": 330.65, "comment": "", "_mean": 6.1152648314095099, "_max": 9.6106739044189453, "layer": "mtl_auto_with_heights_part_1", "path": "D:/GIS/new_city_data/#data_for_fsa_wise_wf/preprocessed/mtl_auto_with_heights_divided/mtl_auto_with_heights_part_1.gpkg|layername=mtl_auto_with_heights_part_1", "nrcan_id": "11e3ba99-842c-4a8a-9897-9acc0adb614d", "nrcan_area": 330.75213451357558, "inter_area": 58.683141411282122, "area_ratio": 0.177423318817232, "sum_restore_group": 0, "sum_restore_reason": "keep", "sum_number_parts": 6, "sum_min_inter_area": 48.609116796636954, "sum_max_inter_area": 61.537207715213299, "sum_max_area_ratio": 0.18605233736651072, "restore_group": null, "restore_reason": null, "nrcan_in_id": "199f7ea1-6ca9-4938-b96f-aac564cab749", "ur_fid": 13, "ur_g_co_mrc": "12345", "ur_g_code_mun": "11223", "ur_g_arrond": "AAA11", "ur_g_no_lot": "1234527", "ur_g_utilisat": "1000", "ur_g_usag_pre": "Résidentiel", "ur_g_id_provi": "mock_prov011", "ur_g_sup_tota": 169.6, "ur_g_nb_logem": 1.0, "ur_g_descript": "Sysnthetic Data", "ur_g_anrole": "2026", "ur_g_date_cad": "2026-09-21 09:15:15.0000000", "ur_g_shape_le": 64.619194244798067, "ur_g_shape_ar": 168.24064673653902, "ur_r_fid": 831165, "ur_r_OBJECTID": 831165.0, "ur_id_provinc": "mock_prov011", "ur_r_code_mun": "66023", "ur_r_arrond": "REM33", "ur_r_rejet": 0, "ur_r_date_entre": "2015", "ur_r_mat18": "975543411110000000", "ur_r_ueid_provinc": "mock_prov011", "ur_r_uecode_mun": "66023", "ur_r_uerl0102a": "REM33", "ur_r_uerl0105a": "1000", "ur_r_uerl0301a": 6.55, "ur_r_uerl0302a": 169.6, "ur_r_uerl0304a": null, "ur_r_uerl0305a": null, "ur_r_uerl0306a": 2, "ur_r_uerl0307a": "1971", "ur_r_uerl0307b": "R", "ur_r_uerl0308a": 109.1, "ur_r_uerl0309a": "4", "ur_r_uerl0311a": 1, "ur_r_uerl0313a": null, "ur_r_uerl0310a": "5", "ur_r_ad_addr_count": "1", "ur_r_ad_addr_all": "12325  CLEMENT-ADER", "ur_r_roll_id": "c5479468-cb6e-4e79-a673-284e26f74183", "ur_r_r_id_provinc": "mock_prov011", "ur_area_ex": null, "ur_ro_fid": null, "ur_ro_OBJECTID": null, "ur_ro_id_provinc": null, "ur_ro_code_mun": null, "ur_ro_arrond": null, "ur_ro_rejet": null, "ur_ro_date_entre": null, "ur_ro_mat18": null, "ur_ro_ueid_provinc": null, "ur_ro_uecode_mun": null, "ur_ro_uerl0102a": null, "ur_ro_uerl0105a": null, "ur_ro_uerl0301a": null, "ur_ro_uerl0302a": null, "ur_ro_uerl0304a": null, "ur_ro_uerl0305a": null, "ur_ro_uerl0306a": null, "ur_ro_uerl0307a": null, "ur_ro_uerl0307b": null, "ur_ro_uerl0308a": null, "ur_ro_uerl0309a": null, "ur_ro_uerl0311a": null, "ur_ro_uerl0313a": null, "ur_ro_uerl0310a": null, "ur_ro_ad_addr_count": null, "ur_ro_ad_addr_all": null, "ur_ro_roll_id": null, "ur_layer": "usage_roll_T1A", "ur_path": "D:/GIS/mtl_gisoo_fsa_data\\output_data\\T1A\\usage_roll\\usage_roll.gpkg", "ur_usage_roll_id": "638669b5-0493-4ce0-81c1-839e20c5ad9f", "g_co_mrc": null, "g_code_mun": null, "g_arrond": null, "g_no_lot": null, "g_utilisat": null, "g_usag_pre": null, "g_id_provi": null, "g_sup_tota": null, "g_nb_logem": null, "g_descript": null, "g_anrole": null, "g_date_cad": null, "g_shape_le": null, "g_shape_ar": null, "r_fid": null, "r_OBJECTID": null, "id_provinc": null, "r_code_mun": null, "r_arrond": null, "r_rejet": null, "r_date_entre": null, "r_mat18": null, "r_ueid_provinc": null, "r_uecode_mun": null, "r_uerl0102a": null, "r_uerl0105a": null, "r_uerl0301a": null, "r_uerl0302a": null, "r_uerl0304a": null, "r_uerl0305a": null, "r_uerl0306a": null, "r_uerl0307a": null, "r_uerl0307b": null, "r_uerl0308a": null, "r_uerl0309a": null, "r_uerl0311a": null, "r_uerl0313a": null, "r_uerl0310a": null, "r_ad_addr_count": null, "r_ad_addr_all": null, "r_roll_id": null, "r_r_id_provinc": null, "area_ex": null, "ro_fid": null, "ro_OBJECTID": null, "ro_id_provinc": null, "ro_code_mun": null, "ro_arrond": null, "ro_rejet": null, "ro_date_entre": null, "ro_mat18": null, "ro_ueid_provinc": null, "ro_uecode_mun": null, "ro_uerl0102a": null, "ro_uerl0105a": null, "ro_uerl0301a": null, "ro_uerl0302a": null, "ro_uerl0304a": null, "ro_uerl0305a": null, "ro_uerl0306a": null, "ro_uerl0307a": null, "ro_uerl0307b": null, "ro_uerl0308a": null, "ro_uerl0309a": null, "ro_uerl0311a": null, "ro_uerl0313a": null, "ro_uerl0310a": null, "ro_ad_addr_count": null, "ro_ad_addr_all": null, "ro_roll_id": null, "usage_roll_id": null, "FSA": "T1A", "citygisoo_id": "09207bdb-f420-4e0b-8dd9-7624c64ae43f", "citygisoo_area": 58.683141411282122, "processing_tool": "citygisoo", "processed_by": "Sabu GIS Cities" }, "geometry": { "type": "MultiPolygon", "coordinates": [ [ [ [ -73.594298420119031, 45.637660679757346 ], [ -73.594390971126472, 45.63761192649423 ], [ -73.5943972, 45.6376181 ], [ -73.5944142, 45.6376095 ], [ -73.594458081127755, 45.637650002280921 ], [ -73.594368327254216, 45.637697272778901 ], [ -73.5943206, 45.6376593 ], [ -73.5943069, 45.6376682 ], [ -73.594298420119031, 45.637660679757346 ] ] ] ] } }
]
}
